{"type":"FeatureCollection","features":[{"type":"Feature","geometry":{"type":"LineString","coordinates":[[85.173228,27.964198],[85.173644,27.963743]]},"properties":{"osm_type":"way","osm_id":281810148,"highway":"path","name":"Tupche Aama ko pool","ref":null,"bridge":"yes","length_m":65.0,"affected_length_m":65.0,"affected_pct":100.0,"affected":true,"near_flood":true}},{"type":"Feature","geometry":{"type":"LineString","coordinates":[[85.185882,27.973907],[85.18586,27.973963],[85.185662,27.97448]]},"properties":{"osm_type":"way","osm_id":341461646,"highway":"primary","name":"Falaakhu River Bridge","ref":"NH42","bridge":"yes","length_m":67.0,"affected_length_m":67.0,"affected_pct":100.0,"affected":true,"near_flood":true}}]}
