{"type":"FeatureCollection","features":[{"type":"Feature","geometry":{"type":"Polygon","coordinates":[[[85.186021,27.973783],[85.186125,27.973824],[85.186091,27.973892],[85.185987,27.973851],[85.186021,27.973783]]]},"properties":{"osm_type":"way","osm_id":341461705,"building":"yes","footprint_m2":91.6,"flooded_m2":91.6,"affected":true}},{"type":"Feature","geometry":{"type":"Polygon","coordinates":[[[85.185824,27.973792],[85.185822,27.97387],[85.18572,27.973868],[85.185722,27.97379],[85.185824,27.973792]]]},"properties":{"osm_type":"way","osm_id":341461866,"building":"yes","footprint_m2":86.8,"flooded_m2":18.6,"affected":true}},{"type":"Feature","geometry":{"type":"Polygon","coordinates":[[[85.18567,27.974639],[85.185653,27.974689],[85.185738,27.97471],[85.185754,27.974661],[85.18567,27.974639]]]},"properties":{"osm_type":"way","osm_id":341461902,"building":"yes","footprint_m2":49.5,"flooded_m2":4.6,"affected":true}},{"type":"Feature","geometry":{"type":"Polygon","coordinates":[[[85.18607,27.973584],[85.186067,27.973749],[85.186015,27.973748],[85.186017,27.973584],[85.18607,27.973584]]]},"properties":{"osm_type":"way","osm_id":341462036,"building":"yes","footprint_m2":94.7,"flooded_m2":94.7,"affected":true}},{"type":"Feature","geometry":{"type":"Polygon","coordinates":[[[85.185699,27.974564],[85.185713,27.974519],[85.18579,27.974539],[85.185776,27.974584],[85.185699,27.974564]]]},"properties":{"osm_type":"way","osm_id":341462082,"building":"yes","footprint_m2":40.9,"flooded_m2":37.9,"affected":true}},{"type":"Feature","geometry":{"type":"Polygon","coordinates":[[[85.186344,27.973978],[85.186283,27.973943],[85.186207,27.974051],[85.186269,27.974085],[85.186313,27.974021],[85.186344,27.973978]]]},"properties":{"osm_type":"way","osm_id":341462114,"building":"yes","footprint_m2":100.2,"flooded_m2":100.2,"affected":true}},{"type":"Feature","geometry":{"type":"Polygon","coordinates":[[[85.186374,27.97397],[85.186449,27.974011],[85.18639,27.974095],[85.186315,27.974054],[85.186346,27.97401],[85.186374,27.97397]]]},"properties":{"osm_type":"way","osm_id":341462120,"building":"yes","footprint_m2":95.3,"flooded_m2":95.3,"affected":true}},{"type":"Feature","geometry":{"type":"Polygon","coordinates":[[[85.186024,27.973984],[85.18605,27.973942],[85.185953,27.973895],[85.185927,27.973936],[85.186024,27.973984]]]},"properties":{"osm_type":"way","osm_id":341462121,"building":"yes","footprint_m2":57.7,"flooded_m2":57.7,"affected":true}},{"type":"Feature","geometry":{"type":"Polygon","coordinates":[[[85.186006,27.973516],[85.186007,27.973437],[85.186045,27.973437],[85.186143,27.973438],[85.186175,27.973439],[85.186174,27.973517],[85.186006,27.973516]]]},"properties":{"osm_type":"way","osm_id":341462128,"building":"yes","footprint_m2":143.9,"flooded_m2":52.9,"affected":true}},{"type":"Feature","geometry":{"type":"Polygon","coordinates":[[[85.173411,27.963452],[85.173289,27.963364],[85.173331,27.963319],[85.173452,27.963407],[85.173411,27.963452]]]},"properties":{"osm_type":"way","osm_id":341587387,"building":"yes","footprint_m2":99.8,"flooded_m2":18.0,"affected":true}},{"type":"Feature","geometry":{"type":"Polygon","coordinates":[[[85.17984,27.968532],[85.179931,27.9685],[85.179978,27.968603],[85.179887,27.968635],[85.17984,27.968532]]]},"properties":{"osm_type":"way","osm_id":342221350,"building":"yes","footprint_m2":118.7,"flooded_m2":81.6,"affected":true}},{"type":"Feature","geometry":{"type":"Polygon","coordinates":[[[85.180717,27.969108],[85.180777,27.968915],[85.180839,27.96893],[85.180779,27.969123],[85.180717,27.969108]]]},"properties":{"osm_type":"way","osm_id":346560099,"building":"yes","footprint_m2":140.7,"flooded_m2":140.7,"affected":true}},{"type":"Feature","geometry":{"type":"Polygon","coordinates":[[[85.180633,27.969172],[85.180673,27.969118],[85.180742,27.969158],[85.180702,27.969212],[85.180633,27.969172]]]},"properties":{"osm_type":"way","osm_id":346560102,"building":"yes","footprint_m2":58.4,"flooded_m2":58.4,"affected":true}},{"type":"Feature","geometry":{"type":"Polygon","coordinates":[[[85.180434,27.968939],[85.180401,27.969008],[85.180453,27.969028],[85.180517,27.968897],[85.18043,27.968864],[85.1804,27.968926],[85.180434,27.968939]]]},"properties":{"osm_type":"way","osm_id":346560103,"building":"yes","footprint_m2":115.6,"flooded_m2":115.6,"affected":true}},{"type":"Feature","geometry":{"type":"Polygon","coordinates":[[[85.17977,27.96847],[85.179845,27.968415],[85.179801,27.968368],[85.179726,27.968423],[85.17977,27.96847]]]},"properties":{"osm_type":"way","osm_id":704709267,"building":"house","footprint_m2":64.8,"flooded_m2":27.9,"affected":true}},{"type":"Feature","geometry":{"type":"Polygon","coordinates":[[[85.180076,27.968675],[85.18013,27.968638],[85.180088,27.96859],[85.180034,27.968627],[85.180076,27.968675]]]},"properties":{"osm_type":"way","osm_id":704709268,"building":"house","footprint_m2":44.9,"flooded_m2":22.2,"affected":true}},{"type":"Feature","geometry":{"type":"Polygon","coordinates":[[[85.188168,27.975623],[85.188217,27.975626],[85.188219,27.975597],[85.18817,27.975594],[85.188168,27.975623]]]},"properties":{"osm_type":"way","osm_id":803110974,"building":"yes","footprint_m2":15.7,"flooded_m2":15.7,"affected":true}},{"type":"Feature","geometry":{"type":"Polygon","coordinates":[[[85.185829,27.974699],[85.185877,27.974753],[85.185912,27.974729],[85.185864,27.974675],[85.185829,27.974699]]]},"properties":{"osm_type":"way","osm_id":846895896,"building":"yes","footprint_m2":33.3,"flooded_m2":32.2,"affected":true}},{"type":"Feature","geometry":{"type":"Polygon","coordinates":[[[85.185764,27.974631],[85.185816,27.974692],[85.185859,27.974663],[85.185807,27.974602],[85.185764,27.974631]]]},"properties":{"osm_type":"way","osm_id":846895897,"building":"yes","footprint_m2":44.8,"flooded_m2":44.4,"affected":true}},{"type":"Feature","geometry":{"type":"Polygon","coordinates":[[[85.186477,27.974448],[85.186455,27.974468],[85.186505,27.974511],[85.186526,27.974491],[85.186477,27.974448]]]},"properties":{"osm_type":"way","osm_id":846895899,"building":"yes","footprint_m2":20.7,"flooded_m2":20.7,"affected":true}},{"type":"Feature","geometry":{"type":"Polygon","coordinates":[[[85.187322,27.973785],[85.187394,27.973816],[85.187432,27.973747],[85.187359,27.973716],[85.187322,27.973785]]]},"properties":{"osm_type":"way","osm_id":846895900,"building":"yes","footprint_m2":67.0,"flooded_m2":2.4,"affected":true}},{"type":"Feature","geometry":{"type":"Polygon","coordinates":[[[85.187446,27.973886],[85.187511,27.973913],[85.187551,27.973838],[85.187487,27.973811],[85.187446,27.973886]]]},"properties":{"osm_type":"way","osm_id":846895901,"building":"yes","footprint_m2":64.5,"flooded_m2":23.4,"affected":true}},{"type":"Feature","geometry":{"type":"Polygon","coordinates":[[[85.187122,27.974146],[85.187169,27.974172],[85.187219,27.974098],[85.187173,27.974073],[85.187122,27.974146]]]},"properties":{"osm_type":"way","osm_id":846895902,"building":"yes","footprint_m2":51.4,"flooded_m2":34.5,"affected":true}},{"type":"Feature","geometry":{"type":"Polygon","coordinates":[[[85.187083,27.974191],[85.187086,27.974261],[85.187152,27.974258],[85.187151,27.974236],[85.187196,27.974234],[85.187194,27.974188],[85.187083,27.974191]]]},"properties":{"osm_type":"way","osm_id":846895903,"building":"yes","footprint_m2":72.9,"flooded_m2":72.9,"affected":true}},{"type":"Feature","geometry":{"type":"Polygon","coordinates":[[[85.187319,27.974094],[85.187385,27.974128],[85.187449,27.97403],[85.187383,27.973996],[85.187319,27.974094]]]},"properties":{"osm_type":"way","osm_id":846895904,"building":"yes","footprint_m2":93.9,"flooded_m2":12.4,"affected":true}},{"type":"Feature","geometry":{"type":"Polygon","coordinates":[[[85.187599,27.974357],[85.187673,27.974393],[85.18771,27.974332],[85.187637,27.974297],[85.187599,27.974357]]]},"properties":{"osm_type":"way","osm_id":846895905,"building":"yes","footprint_m2":63.1,"flooded_m2":63.1,"affected":true}},{"type":"Feature","geometry":{"type":"Polygon","coordinates":[[[85.187794,27.974414],[85.187858,27.97446],[85.187908,27.974406],[85.187844,27.97436],[85.187794,27.974414]]]},"properties":{"osm_type":"way","osm_id":846895906,"building":"yes","footprint_m2":63.1,"flooded_m2":63.1,"affected":true}},{"type":"Feature","geometry":{"type":"Polygon","coordinates":[[[85.188074,27.97423],[85.188121,27.974279],[85.188242,27.974186],[85.188195,27.974138],[85.188074,27.97423]]]},"properties":{"osm_type":"way","osm_id":846895907,"building":"yes","footprint_m2":111.3,"flooded_m2":111.3,"affected":true}},{"type":"Feature","geometry":{"type":"Polygon","coordinates":[[[85.187951,27.9743],[85.187989,27.974355],[85.188092,27.9743],[85.188054,27.974245],[85.187951,27.9743]]]},"properties":{"osm_type":"way","osm_id":846895908,"building":"yes","footprint_m2":84.9,"flooded_m2":84.9,"affected":true}},{"type":"Feature","geometry":{"type":"Polygon","coordinates":[[[85.172656,27.964032],[85.172786,27.964066],[85.172798,27.96403],[85.172669,27.963989],[85.172656,27.964032]]]},"properties":{"osm_type":"way","osm_id":886387009,"building":"yes","footprint_m2":59.8,"flooded_m2":59.8,"affected":true}},{"type":"Feature","geometry":{"type":"Polygon","coordinates":[[[85.180477,27.969045],[85.180504,27.968982],[85.180629,27.969025],[85.180601,27.969088],[85.180477,27.969045]]]},"properties":{"osm_type":"way","osm_id":886391884,"building":"yes","footprint_m2":98.1,"flooded_m2":98.1,"affected":true}},{"type":"Feature","geometry":{"type":"Polygon","coordinates":[[[85.179958,27.968503],[85.179982,27.968575],[85.180036,27.968562],[85.180012,27.96849],[85.179958,27.968503]]]},"properties":{"osm_type":"way","osm_id":886391892,"building":"yes","footprint_m2":45.9,"flooded_m2":8.0,"affected":true}},{"type":"Feature","geometry":{"type":"Polygon","coordinates":[[[85.179635,27.968375],[85.17967,27.968434],[85.179725,27.968409],[85.17969,27.96835],[85.179635,27.968375]]]},"properties":{"osm_type":"way","osm_id":886391893,"building":"yes","footprint_m2":44.6,"flooded_m2":18.1,"affected":true}},{"type":"Feature","geometry":{"type":"Polygon","coordinates":[[[85.180945,27.968998],[85.180948,27.968958],[85.181014,27.968963],[85.18101,27.969002],[85.180945,27.968998]]]},"properties":{"osm_type":"way","osm_id":886391895,"building":"yes","footprint_m2":28.1,"flooded_m2":28.1,"affected":true}},{"type":"Feature","geometry":{"type":"Polygon","coordinates":[[[85.181159,27.969106],[85.181195,27.969199],[85.181293,27.96917],[85.181271,27.969113],[85.181216,27.969129],[85.181202,27.969093],[85.181159,27.969106]]]},"properties":{"osm_type":"way","osm_id":886391896,"building":"yes","footprint_m2":86.6,"flooded_m2":86.6,"affected":true}},{"type":"Feature","geometry":{"type":"Polygon","coordinates":[[[85.18606,27.97395],[85.186179,27.974014],[85.186226,27.973946],[85.186212,27.973939],[85.186225,27.973921],[85.186119,27.973864],[85.18606,27.97395]]]},"properties":{"osm_type":"way","osm_id":987441829,"building":"yes","footprint_m2":147.9,"flooded_m2":147.9,"affected":true}}]}
