{"type":"FeatureCollection","features":[{"type":"Feature","geometry":{"type":"LineString","coordinates":[[85.185882,27.973907],[85.18586,27.973963],[85.185662,27.97448]]},"properties":{"osm_type":"way","osm_id":341461646,"highway":"primary","name":"Falaakhu River Bridge","ref":"NH42","bridge":"yes","length_m":67.0,"affected_length_m":67.0,"affected_pct":100.0,"affected":true}},{"type":"Feature","geometry":{"type":"LineString","coordinates":[[85.184861,27.970533],[85.184866,27.97055],[85.185063,27.971113],[85.185261,27.971644],[85.185272,27.97167],[85.185357,27.971883],[85.18546,27.972169],[85.185536,27.97238],[85.185668,27.97279],[85.185684,27.972898],[85.185688,27.972935],[85.185864,27.973448],[85.185917,27.973602],[85.185896,27.973711],[85.185882,27.973907]]},"properties":{"osm_type":"way","osm_id":345313941,"highway":"primary","name":"Pasang Lhamu Highway","ref":"NH42","bridge":null,"length_m":390.0,"affected_length_m":29.6,"affected_pct":7.6,"affected":true}},{"type":"Feature","geometry":{"type":"LineString","coordinates":[[85.17,27.959894],[85.170583,27.960487],[85.172448,27.962271],[85.172682,27.962499],[85.172761,27.962583],[85.172773,27.962594],[85.173829,27.963543],[85.1739,27.963606],[85.173952,27.963642],[85.174041,27.963679],[85.17429,27.963738],[85.174532,27.963802],[85.17464,27.963837],[85.174808,27.963902],[85.174884,27.963927],[85.175343,27.964038],[85.175453,27.96407],[85.175502,27.96409],[85.175591,27.964136],[85.175663,27.964185],[85.175771,27.964269],[85.175849,27.96431],[85.175919,27.964339],[85.175997,27.964365],[85.176166,27.964406],[85.176328,27.964459],[85.176442,27.964509],[85.176499,27.964539],[85.176605,27.96461],[85.176651,27.964652],[85.176689,27.964696],[85.176749,27.964792],[85.176827,27.964933],[85.176856,27.964975],[85.17689,27.965012],[85.176929,27.965044],[85.177109,27.965167],[85.177326,27.965323],[85.177522,27.965473],[85.177741,27.965687],[85.178085,27.966037],[85.178447,27.966454],[85.178566,27.966581],[85.178629,27.966632],[85.17872,27.966696],[85.17907,27.966923],[85.179114,27.96696],[85.179201,27.967046],[85.179315,27.96718],[85.179384,27.967278],[85.179719,27.967976],[85.179819,27.968154],[85.1799,27.968279],[85.179958,27.968358],[85.179993,27.968399],[85.180038,27.968442],[85.180148,27.96853],[85.180325,27.96865],[85.180459,27.968728],[85.180591,27.968778],[85.180826,27.968845],[85.180903,27.968849],[85.180931,27.968871],[85.181018,27.968884],[85.181127,27.968885],[85.18132,27.968866],[85.181393,27.968845],[85.181503,27.968833],[85.181718,27.968781],[85.181832,27.968765],[85.181918,27.96876],[85.18202,27.96876],[85.182143,27.968777],[85.182357,27.968825],[85.183095,27.969022],[85.18372,27.969199],[85.183815,27.969229],[85.183922,27.969268],[85.184035,27.969319],[85.184091,27.969348],[85.184203,27.969421],[85.184258,27.969464],[85.18436,27.969553],[85.184445,27.969637],[85.184503,27.969704],[85.184594,27.969852],[85.184658,27.969971],[85.18469,27.970038],[85.184738,27.970107],[85.184791,27.970312]]},"properties":{"osm_type":"way","osm_id":379104232,"highway":"primary","name":"Pasang Lhamu Highway","ref":"NH42","bridge":null,"length_m":1960.8,"affected_length_m":92.4,"affected_pct":4.7,"affected":true}}]}
