{"type":"FeatureCollection","features":[{"type":"Feature","geometry":{"type":"LineString","coordinates":[[85.185882,27.973907],[85.18586,27.973963],[85.185662,27.97448]]},"properties":{"osm_type":"way","osm_id":341461646,"highway":"primary","name":"Falaakhu River Bridge","ref":"NH42","bridge":"yes","length_m":67.0,"affected_length_m":67.0,"affected_pct":100.0,"affected":true}},{"type":"Feature","geometry":{"type":"MultiLineString","coordinates":[[[85.185911,27.973634],[85.185896,27.973711],[85.185891,27.973784]],[[85.18589,27.973792],[85.185882,27.973907]]]},"properties":{"osm_type":"way","osm_id":345313941,"highway":"primary","name":"Pasang Lhamu Highway","ref":"NH42","bridge":null,"length_m":390.0,"affected_length_m":29.6,"affected_pct":7.6,"affected":true}},{"type":"Feature","geometry":{"type":"MultiLineString","coordinates":[[[85.180437,27.968715],[85.180459,27.968728],[85.180501,27.968743]],[[85.180647,27.968794],[85.180826,27.968845],[85.180903,27.968849],[85.180931,27.968871],[85.181018,27.968884],[85.181127,27.968885],[85.18132,27.968866],[85.181393,27.968845],[85.181489,27.968834]]]},"properties":{"osm_type":"way","osm_id":379104232,"highway":"primary","name":"Pasang Lhamu Highway","ref":"NH42","bridge":null,"length_m":1960.8,"affected_length_m":92.4,"affected_pct":4.7,"affected":true}}]}
