{"type":"FeatureCollection","features":[{"type":"Feature","geometry":{"type":"LineString","coordinates":[[85.173228,27.964198],[85.173644,27.963743]]},"properties":{"osm_type":"way","osm_id":281810148,"highway":"path","name":"Tupche Aama ko pool","ref":null,"bridge":"yes","length_m":65.0,"affected_length_m":65.0,"affected_pct":100.0,"affected":true,"near_flood":true}},{"type":"Feature","geometry":{"type":"LineString","coordinates":[[85.175517,27.983138],[85.175572,27.982868],[85.175622,27.98261]]},"properties":{"osm_type":"way","osm_id":340476882,"highway":"unclassified","name":null,"ref":"28A019R","bridge":"yes","length_m":59.4,"affected_length_m":0.0,"affected_pct":0.0,"affected":false,"near_flood":false}},{"type":"Feature","geometry":{"type":"LineString","coordinates":[[85.185081,27.972434],[85.183959,27.972526]]},"properties":{"osm_type":"way","osm_id":341049679,"highway":"path","name":null,"ref":null,"bridge":"yes","length_m":110.9,"affected_length_m":0.0,"affected_pct":0.0,"affected":false,"near_flood":false}},{"type":"Feature","geometry":{"type":"LineString","coordinates":[[85.185882,27.973907],[85.18586,27.973963],[85.185662,27.97448]]},"properties":{"osm_type":"way","osm_id":341461646,"highway":"primary","name":"Falaakhu River Bridge","ref":"NH42","bridge":"yes","length_m":67.0,"affected_length_m":67.0,"affected_pct":100.0,"affected":true,"near_flood":true}},{"type":"Feature","geometry":{"type":"LineString","coordinates":[[85.170631,27.963638],[85.17025,27.963347],[85.170068,27.963355]]},"properties":{"osm_type":"way","osm_id":341587490,"highway":"service","name":null,"ref":null,"bridge":"yes","length_m":67.4,"affected_length_m":0.0,"affected_pct":0.0,"affected":false,"near_flood":false}},{"type":"Feature","geometry":{"type":"LineString","coordinates":[[85.181074,27.978926],[85.18169,27.979138]]},"properties":{"osm_type":"way","osm_id":341705735,"highway":"path","name":null,"ref":null,"bridge":"yes","length_m":64.9,"affected_length_m":0.0,"affected_pct":0.0,"affected":false,"near_flood":false}},{"type":"Feature","geometry":{"type":"LineString","coordinates":[[85.186526,27.971187],[85.186604,27.971151]]},"properties":{"osm_type":"way","osm_id":343296363,"highway":"path","name":null,"ref":null,"bridge":"yes","length_m":8.6,"affected_length_m":0.0,"affected_pct":0.0,"affected":false,"near_flood":false}},{"type":"Feature","geometry":{"type":"LineString","coordinates":[[85.179787,27.982168],[85.179787,27.981512]]},"properties":{"osm_type":"way","osm_id":343303369,"highway":"path","name":null,"ref":null,"bridge":"yes","length_m":72.7,"affected_length_m":0.0,"affected_pct":0.0,"affected":false,"near_flood":false}},{"type":"Feature","geometry":{"type":"LineString","coordinates":[[85.184791,27.970312],[85.184861,27.970533]]},"properties":{"osm_type":"way","osm_id":345313942,"highway":"primary","name":"Pasang Lhamu Highway","ref":"F21","bridge":"yes","length_m":25.4,"affected_length_m":0.0,"affected_pct":0.0,"affected":false,"near_flood":false}},{"type":"Feature","geometry":{"type":"LineString","coordinates":[[85.199447,27.986645],[85.199659,27.986474]]},"properties":{"osm_type":"way","osm_id":886471593,"highway":"unclassified","name":null,"ref":null,"bridge":"yes","length_m":28.1,"affected_length_m":0.0,"affected_pct":0.0,"affected":false,"near_flood":false}}]}
