{"type":"FeatureCollection","features":[{"type":"Feature","geometry":{"type":"Point","coordinates":[85.185953,27.973108]},"properties":{"osm_type":"node","osm_id":268864226,"place":"hamlet","name":"Betrawati","name_local":"बेत्रावती","nearest_node":13186041199,"snap_distance_m":35.3,"status":"potentially_cut_off","reachable_road_km_before":31.13,"reachable_road_km_after":0.7,"access_reduced":true,"blocked_edges_at_node":[]}},{"type":"Feature","geometry":{"type":"Point","coordinates":[85.170331,27.960367]},"properties":{"osm_type":"node","osm_id":2857852085,"place":"hamlet","name":"Bhainse","name_local":"भैंसे","nearest_node":2532475279,"snap_distance_m":28.1,"status":"potentially_cut_off","reachable_road_km_before":31.13,"reachable_road_km_after":0.39,"access_reduced":true,"blocked_edges_at_node":[]}}]}
