{"type":"FeatureCollection","features":[{"type":"Feature","geometry":{"type":"MultiPolygon","coordinates":[[[[85.173315,27.964272],[85.173494,27.964272],[85.173494,27.964192],[85.173584,27.964192],[85.173584,27.964113],[85.173764,27.964113],[85.173764,27.964034],[85.173853,27.964034],[85.173853,27.963716],[85.173764,27.963716],[85.173764,27.963637],[85.173584,27.963637],[85.173584,27.963557],[85.173494,27.963557],[85.173494,27.963478],[85.173404,27.963478],[85.173404,27.963399],[85.173225,27.963399],[85.173225,27.963319],[85.173045,27.963319],[85.173045,27.96324],[85.172955,27.96324],[85.172955,27.963161],[85.172326,27.963161],[85.172326,27.96324],[85.172237,27.96324],[85.172237,27.963796],[85.172326,27.963796],[85.172326,27.963954],[85.172416,27.963954],[85.172416,27.964034],[85.172506,27.964034],[85.172506,27.964113],[85.172596,27.964113],[85.172596,27.964192],[85.172686,27.964192],[85.172686,27.964272],[85.172865,27.964272],[85.172865,27.964351],[85.173315,27.964351],[85.173315,27.964272]]],[[[85.176638,27.965779],[85.176548,27.965779],[85.176548,27.965541],[85.176459,27.965541],[85.176459,27.965462],[85.176369,27.965462],[85.176369,27.965303],[85.176279,27.965303],[85.176279,27.965224],[85.176189,27.965224],[85.176189,27.965144],[85.176099,27.965144],[85.176099,27.964906],[85.176009,27.964906],[85.176009,27.964748],[85.17556,27.964748],[85.17556,27.964827],[85.17547,27.964827],[85.17547,27.965065],[85.17556,27.965065],[85.17556,27.965144],[85.17565,27.965144],[85.17565,27.965382],[85.17574,27.965382],[85.17574,27.965462],[85.17583,27.965462],[85.17583,27.96562],[85.17592,27.96562],[85.17592,27.9657],[85.176189,27.9657],[85.176189,27.965779],[85.176369,27.965779],[85.176369,27.965858],[85.176548,27.965858],[85.176548,27.966017],[85.176638,27.966017],[85.176638,27.965779]]],[[[85.18122,27.969429],[85.18131,27.969429],[85.18131,27.969349],[85.181399,27.969349],[85.181399,27.96927],[85.181489,27.96927],[85.181489,27.968794],[85.180501,27.968794],[85.180501,27.968715],[85.180232,27.968715],[85.180232,27.968635],[85.180052,27.968635],[85.180052,27.968556],[85.179872,27.968556],[85.179872,27.968477],[85.179782,27.968477],[85.179782,27.968397],[85.179423,27.968397],[85.179423,27.968556],[85.179513,27.968556],[85.179513,27.968635],[85.179603,27.968635],[85.179603,27.968794],[85.179782,27.968794],[85.179782,27.968873],[85.180052,27.968873],[85.180052,27.968953],[85.180232,27.968953],[85.180232,27.969032],[85.180321,27.969032],[85.180321,27.969111],[85.180411,27.969111],[85.180411,27.969191],[85.180591,27.969191],[85.180591,27.969349],[85.180681,27.969349],[85.180681,27.969429],[85.180771,27.969429],[85.180771,27.969508],[85.18122,27.969508],[85.18122,27.969429]]],[[[85.188137,27.976093],[85.188137,27.975855],[85.188227,27.975855],[85.188227,27.975696],[85.188945,27.975696],[85.188945,27.975617],[85.189035,27.975617],[85.189035,27.975538],[85.189125,27.975538],[85.189125,27.975379],[85.189215,27.975379],[85.189215,27.975062],[85.189125,27.975062],[85.189125,27.974903],[85.189035,27.974903],[85.189035,27.974824],[85.189305,27.974824],[85.189305,27.974665],[85.189394,27.974665],[85.189394,27.974427],[85.189484,27.974427],[85.189484,27.974268],[85.189394,27.974268],[85.189394,27.97411],[85.189305,27.97411],[85.189305,27.97403],[85.189215,27.97403],[85.189215,27.973951],[85.189125,27.973951],[85.189125,27.973872],[85.189035,27.973872],[85.189035,27.973792],[85.188945,27.973792],[85.188945,27.973713],[85.188855,27.973713],[85.188855,27.973634],[85.188676,27.973634],[85.188676,27.973554],[85.188586,27.973554],[85.188586,27.973475],[85.188406,27.973475],[85.188406,27.973396],[85.188316,27.973396],[85.188316,27.973316],[85.188137,27.973316],[85.188137,27.973237],[85.187957,27.973237],[85.187957,27.973158],[85.187508,27.973158],[85.187508,27.973078],[85.187238,27.973078],[85.187238,27.973158],[85.187059,27.973158],[85.187059,27.973078],[85.18661,27.973078],[85.18661,27.973158],[85.18652,27.973158],[85.18652,27.973237],[85.18643,27.973237],[85.18643,27.973316],[85.18625,27.973316],[85.18625,27.973396],[85.18616,27.973396],[85.18616,27.973475],[85.186071,27.973475],[85.186071,27.973554],[85.185981,27.973554],[85.185981,27.973634],[85.185891,27.973634],[85.185891,27.973792],[85.185801,27.973792],[85.185801,27.973872],[85.185711,27.973872],[85.185711,27.97403],[85.185621,27.97403],[85.185621,27.97411],[85.185532,27.97411],[85.185532,27.974348],[85.185621,27.974348],[85.185621,27.974506],[85.185711,27.974506],[85.185711,27.974665],[85.185801,27.974665],[85.185801,27.974744],[85.185891,27.974744],[85.185891,27.974824],[85.18625,27.974824],[85.18625,27.974903],[85.18634,27.974903],[85.18634,27.975062],[85.18643,27.975062],[85.18643,27.97522],[85.18652,27.97522],[85.18652,27.975379],[85.18661,27.975379],[85.18661,27.975617],[85.186699,27.975617],[85.186699,27.975776],[85.186789,27.975776],[85.186789,27.975855],[85.186879,27.975855],[85.186879,27.975934],[85.187238,27.975934],[85.187238,27.976014],[85.187418,27.976014],[85.187418,27.976093],[85.187688,27.976093],[85.187688,27.976172],[85.188047,27.976172],[85.188047,27.976093],[85.188137,27.976093]],[[85.187059,27.974824],[85.187688,27.974824],[85.187688,27.974903],[85.187598,27.974903],[85.187598,27.974982],[85.187508,27.974982],[85.187508,27.975062],[85.187328,27.975062],[85.187328,27.974982],[85.187238,27.974982],[85.187238,27.975062],[85.187149,27.975062],[85.187149,27.974903],[85.187059,27.974903],[85.187059,27.974824]],[[85.187059,27.973713],[85.187149,27.973713],[85.187149,27.973634],[85.187238,27.973634],[85.187238,27.973713],[85.187418,27.973713],[85.187418,27.973792],[85.187508,27.973792],[85.187508,27.97403],[85.187418,27.97403],[85.187418,27.97411],[85.187149,27.97411],[85.187149,27.97403],[85.187059,27.97403],[85.187059,27.973713]]],[[[85.189754,27.97649],[85.189754,27.976331],[85.189844,27.976331],[85.189844,27.976252],[85.189754,27.976252],[85.189754,27.976093],[85.189484,27.976093],[85.189484,27.976172],[85.189394,27.976172],[85.189394,27.976252],[85.189305,27.976252],[85.189305,27.97641],[85.189215,27.97641],[85.189215,27.976569],[85.189574,27.976569],[85.189574,27.97649],[85.189754,27.97649]]]]},"properties":{"class":"flood","source":"trishuli_20260828_class.tif","min_pixels":10}}]}
