{"type":"FeatureCollection","features":[{"type":"Feature","geometry":{"type":"LineString","coordinates":[[85.18015,27.990001],[85.17999,27.989705],[85.179586,27.989382],[85.179592,27.98891],[85.179405,27.988578],[85.179381,27.98848],[85.179426,27.988334],[85.179347,27.98824],[85.179327,27.988032],[85.179036,27.987532]]},"properties":{"osm_id":298744767,"highway":"track","name":null,"ref":null}},{"type":"Feature","geometry":{"type":"LineString","coordinates":[[85.184024,27.974892],[85.183923,27.97493],[85.183863,27.975205],[85.183719,27.975451],[85.183123,27.976069],[85.182864,27.976411],[85.182102,27.97812],[85.182098,27.978268],[85.182439,27.97854],[85.182285,27.979194],[85.182285,27.97947],[85.182136,27.979609],[85.182012,27.979959],[85.181882,27.980169],[85.181621,27.98087],[85.181598,27.981047],[85.181264,27.981473],[85.181223,27.981639],[85.181231,27.981833],[85.181125,27.982187],[85.181144,27.982383],[85.181204,27.982533],[85.181797,27.983754],[85.181702,27.984958],[85.181799,27.986197],[85.181801,27.986481],[85.181698,27.986915],[85.181724,27.987139],[85.18203,27.987396],[85.182246,27.987944],[85.182595,27.988249],[85.182534,27.988692],[85.182624,27.989193],[85.182985,27.989363],[85.183253,27.989755],[85.183285,27.990002]]},"properties":{"osm_id":298744772,"highway":"unclassified","name":null,"ref":"NH42"}},{"type":"Feature","geometry":{"type":"LineString","coordinates":[[85.170825,27.964387],[85.170671,27.964383],[85.170406,27.96449],[85.17,27.9646]]},"properties":{"osm_id":340421702,"highway":"unclassified","name":null,"ref":null}},{"type":"Feature","geometry":{"type":"LineString","coordinates":[[85.17,27.965047],[85.170248,27.965294],[85.170361,27.965337]]},"properties":{"osm_id":340421705,"highway":"unclassified","name":null,"ref":null}},{"type":"Feature","geometry":{"type":"LineString","coordinates":[[85.170934,27.975668],[85.170959,27.975483],[85.171082,27.975438],[85.171177,27.975522],[85.171184,27.975731],[85.171286,27.976093],[85.171382,27.97675],[85.171479,27.976935],[85.171792,27.976965],[85.171877,27.976906],[85.172311,27.977009],[85.172489,27.976953],[85.172556,27.976883],[85.172666,27.976834],[85.172889,27.97687],[85.173072,27.976853],[85.173212,27.976903],[85.173472,27.977124],[85.173579,27.977147],[85.173996,27.977415],[85.174366,27.977551],[85.174593,27.977521],[85.174859,27.977404],[85.174926,27.977326],[85.174917,27.977263],[85.174528,27.977365],[85.174423,27.977317],[85.174101,27.977046],[85.173825,27.976915],[85.173675,27.976775],[85.173369,27.976148],[85.173052,27.975796],[85.173094,27.97575],[85.173148,27.975767],[85.173517,27.976086],[85.173894,27.976303],[85.174273,27.976257],[85.174421,27.976259],[85.174563,27.976307],[85.174615,27.976281],[85.174634,27.976228],[85.174587,27.976165],[85.174339,27.975982],[85.174066,27.975837],[85.173793,27.975542],[85.173787,27.975464],[85.173823,27.97541],[85.17405,27.975299],[85.174397,27.975202],[85.174504,27.975205],[85.174691,27.975229],[85.175006,27.975401],[85.175233,27.975372],[85.175467,27.97543],[85.17583,27.975442],[85.17601,27.975475],[85.176204,27.97556],[85.176573,27.975582],[85.176685,27.975618],[85.176961,27.975856],[85.177572,27.976276]]},"properties":{"osm_id":340422387,"highway":"unclassified","name":null,"ref":null}},{"type":"Feature","geometry":{"type":"LineString","coordinates":[[85.190961,27.987224],[85.190883,27.987349],[85.190699,27.98754],[85.190614,27.987897],[85.190322,27.987972],[85.190279,27.98805],[85.190328,27.988273],[85.190615,27.988902],[85.190539,27.989153],[85.190662,27.989335],[85.19065,27.989471],[85.190563,27.989711],[85.190578,27.989843],[85.190653,27.990002]]},"properties":{"osm_id":340423861,"highway":"unclassified","name":null,"ref":"29A001"}},{"type":"Feature","geometry":{"type":"MultiLineString","coordinates":[[[85.179036,27.987532],[85.178945,27.987538],[85.178796,27.987438],[85.178676,27.987185],[85.178605,27.986875],[85.178408,27.986622],[85.178342,27.986354],[85.178342,27.986096],[85.178164,27.985901],[85.177955,27.985843],[85.177764,27.985664],[85.17793,27.985375],[85.177961,27.985211],[85.177895,27.985069],[85.177824,27.984706],[85.177669,27.984759],[85.177413,27.98478],[85.177192,27.984659],[85.177132,27.98469],[85.17718,27.984775],[85.177401,27.984859],[85.177466,27.984959],[85.177484,27.985275],[85.177395,27.985427],[85.177162,27.985522],[85.177103,27.985685],[85.177395,27.98659],[85.177317,27.986748],[85.177347,27.986869],[85.177448,27.987038],[85.177502,27.987333],[85.177495,27.987837],[85.177669,27.988143],[85.177723,27.98837],[85.177872,27.988512],[85.178098,27.988601],[85.178134,27.988701],[85.178068,27.988727],[85.177675,27.988559],[85.177466,27.988336],[85.176921,27.988096],[85.176822,27.987953],[85.176795,27.987684],[85.176702,27.987686],[85.176649,27.987813],[85.176662,27.987994],[85.176727,27.988142],[85.176989,27.988454],[85.177562,27.988969],[85.177574,27.989096],[85.177401,27.989885],[85.177429,27.990001]],[[85.176353,27.990001],[85.176405,27.989596],[85.176346,27.989517],[85.17617,27.989514],[85.175919,27.989417],[85.175749,27.989258],[85.175421,27.989081],[85.175131,27.989002],[85.174815,27.988997],[85.174445,27.988779],[85.174238,27.988709],[85.174117,27.988734],[85.17358,27.989122],[85.173406,27.989352],[85.173222,27.989496],[85.172714,27.989622],[85.172382,27.989825],[85.172022,27.989807],[85.171795,27.989701],[85.17157,27.989669],[85.171416,27.989684],[85.171008,27.989894],[85.1706,27.989848],[85.170417,27.989897],[85.17029,27.99]]]},"properties":{"osm_id":340424574,"highway":"unclassified","name":null,"ref":null}},{"type":"Feature","geometry":{"type":"LineString","coordinates":[[85.174245,27.988252],[85.174473,27.988418],[85.174665,27.988684],[85.174805,27.988793],[85.174955,27.988877],[85.175085,27.988901],[85.175372,27.988899],[85.175632,27.989146],[85.175906,27.989324],[85.176034,27.989454]]},"properties":{"osm_id":340425486,"highway":"unclassified","name":null,"ref":null}},{"type":"Feature","geometry":{"type":"LineString","coordinates":[[85.193596,27.990002],[85.193542,27.989802],[85.19361,27.989404],[85.193679,27.989274],[85.194248,27.988752],[85.194437,27.988323],[85.194586,27.988123],[85.194776,27.988003],[85.195022,27.988072],[85.195251,27.988009],[85.195468,27.987985],[85.195614,27.987931],[85.195724,27.987819],[85.195742,27.987757],[85.195681,27.987522],[85.195678,27.986663],[85.195714,27.98661],[85.196009,27.986409],[85.196135,27.986221],[85.196192,27.98621],[85.19653,27.986328],[85.19694,27.986525],[85.197651,27.986655],[85.19789,27.986756],[85.197958,27.986744],[85.198266,27.986491],[85.198424,27.986155],[85.198563,27.986002],[85.199133,27.98575],[85.199198,27.985683],[85.199186,27.985604],[85.199097,27.985567],[85.198699,27.985684],[85.198513,27.985702],[85.19835,27.985668],[85.198109,27.98557],[85.198079,27.985444],[85.198209,27.985369],[85.199026,27.985122],[85.19923,27.985148]]},"properties":{"osm_id":340426142,"highway":"unclassified","name":null,"ref":null}},{"type":"Feature","geometry":{"type":"LineString","coordinates":[[85.211206,27.977133],[85.211457,27.976892],[85.211666,27.976747],[85.211816,27.976583],[85.211979,27.976523],[85.212046,27.97645],[85.212218,27.976137],[85.212315,27.975703],[85.212394,27.975644],[85.212491,27.97568],[85.212598,27.976032],[85.213683,27.976727],[85.214173,27.977479],[85.214341,27.977597],[85.214555,27.977637],[85.214703,27.977559],[85.214845,27.9774],[85.214926,27.977397],[85.215162,27.97758],[85.215248,27.977547],[85.215524,27.976955],[85.215594,27.976652],[85.216133,27.976576],[85.216234,27.976625],[85.216302,27.976704],[85.216369,27.977011],[85.216487,27.977168],[85.21683,27.977454],[85.217235,27.977663],[85.217353,27.977668],[85.217436,27.977616],[85.217514,27.977478],[85.217568,27.97728],[85.217632,27.977253],[85.217731,27.977293],[85.218072,27.977578],[85.218178,27.977592],[85.218338,27.977511],[85.218393,27.977524],[85.218895,27.977983],[85.219013,27.978025],[85.219102,27.978023],[85.219376,27.977936],[85.21966,27.977986],[85.219915,27.978109],[85.22,27.978116]]},"properties":{"osm_id":340426204,"highway":"unclassified","name":null,"ref":"29A002"}},{"type":"Feature","geometry":{"type":"LineString","coordinates":[[85.190577,27.987922],[85.190162,27.987872],[85.190084,27.987926],[85.190045,27.988409],[85.189623,27.989159],[85.189396,27.989369],[85.189328,27.989535],[85.189198,27.989684],[85.189014,27.990002]]},"properties":{"osm_id":340426777,"highway":"unclassified","name":null,"ref":null}},{"type":"Feature","geometry":{"type":"LineString","coordinates":[[85.187359,27.978555],[85.187337,27.978478],[85.187359,27.978414],[85.187442,27.978372],[85.187504,27.978421],[85.187681,27.978758],[85.18781,27.978905],[85.188036,27.979048],[85.188248,27.979136],[85.188424,27.979169],[85.188596,27.979334],[85.188772,27.979569],[85.18893,27.979689],[85.189098,27.979675],[85.189242,27.979433],[85.189313,27.979403],[85.189429,27.979414],[85.189717,27.979758],[85.189852,27.979775],[85.190044,27.979669],[85.190293,27.979601],[85.19042,27.97963],[85.19085,27.979636],[85.191209,27.979718],[85.191305,27.979672],[85.191529,27.979657],[85.191681,27.979373],[85.191792,27.979238],[85.191887,27.979175],[85.192383,27.979017],[85.19263,27.979009],[85.193051,27.978821],[85.193235,27.978621],[85.193505,27.978213],[85.193676,27.978165],[85.194076,27.978281],[85.19428,27.978434],[85.194528,27.978833],[85.194981,27.978954],[85.195273,27.978896],[85.195541,27.978887],[85.195626,27.978828],[85.195755,27.978658],[85.195813,27.978644],[85.196054,27.97872],[85.196345,27.978731],[85.197099,27.978553],[85.19756,27.978585],[85.19771,27.978712],[85.197934,27.979002],[85.198173,27.97921],[85.198433,27.979614]]},"properties":{"osm_id":340427159,"highway":"unclassified","name":null,"ref":"29A002"}},{"type":"Feature","geometry":{"type":"LineString","coordinates":[[85.206142,27.96315],[85.206563,27.962983],[85.207577,27.96265],[85.207809,27.96233],[85.208091,27.962206],[85.20819,27.962289],[85.208578,27.962318],[85.208884,27.961987],[85.20939,27.961855],[85.210157,27.961767],[85.210781,27.961562],[85.211404,27.961229],[85.211665,27.961025],[85.211998,27.960615],[85.212542,27.960145],[85.212741,27.960164],[85.212875,27.959936],[85.212984,27.959463],[85.212926,27.959207],[85.2131,27.958848],[85.21339,27.958631],[85.213556,27.958557],[85.213662,27.958379],[85.213874,27.958361],[85.214114,27.958577],[85.214203,27.958618],[85.214466,27.958649],[85.214623,27.958568],[85.214695,27.958478],[85.215101,27.958502],[85.215249,27.958473],[85.215234,27.958399],[85.215116,27.958365],[85.214669,27.958008],[85.214045,27.957909],[85.213882,27.957793],[85.213401,27.957733],[85.213102,27.957837],[85.212607,27.957907],[85.212065,27.957813],[85.211824,27.957704],[85.211419,27.957669],[85.211211,27.957534],[85.211086,27.957276],[85.210939,27.957084],[85.210876,27.956889],[85.210577,27.956462],[85.210122,27.956122],[85.20983,27.955742]]},"properties":{"osm_id":340427585,"highway":"track","name":null,"ref":null}},{"type":"Feature","geometry":{"type":"LineString","coordinates":[[85.171024,27.952703],[85.171032,27.952581],[85.170346,27.952364],[85.170257,27.952259],[85.170243,27.952012],[85.17,27.951596]]},"properties":{"osm_id":340431626,"highway":"unclassified","name":null,"ref":null}},{"type":"Feature","geometry":{"type":"LineString","coordinates":[[85.219833,27.978058],[85.219672,27.978041],[85.219354,27.978072],[85.21916,27.978385],[85.219071,27.978382],[85.218609,27.978057],[85.218097,27.978051],[85.217855,27.978079],[85.217612,27.978399],[85.21723,27.978432],[85.216932,27.9784],[85.216862,27.978583],[85.216915,27.978651],[85.217169,27.978613],[85.217446,27.978671],[85.217782,27.978695],[85.218185,27.978488],[85.218217,27.978517],[85.218189,27.978612],[85.217618,27.978883],[85.217282,27.978998],[85.217168,27.979141],[85.21723,27.979306],[85.217546,27.97954],[85.217495,27.97983],[85.217729,27.980198],[85.217827,27.980196],[85.217886,27.980023],[85.217989,27.979951],[85.218061,27.980011],[85.217983,27.980221],[85.217977,27.980371],[85.217838,27.980485],[85.217633,27.980581],[85.217671,27.980681],[85.218165,27.980588],[85.218334,27.98047],[85.218558,27.980228],[85.21868,27.979943],[85.21888,27.979879],[85.219211,27.980002],[85.219448,27.980148],[85.219781,27.980247],[85.219933,27.980357],[85.22,27.980444]]},"properties":{"osm_id":340450700,"highway":"unclassified","name":"Dasmure-Setidevi-Ma-Vi-Dhuseni-Rupsepani","ref":null}},{"type":"Feature","geometry":{"type":"LineString","coordinates":[[85.175622,27.98261],[85.175674,27.9825],[85.175826,27.982459],[85.175933,27.982512],[85.176079,27.982655],[85.176288,27.982713],[85.176415,27.982693],[85.176959,27.982448],[85.177456,27.982286],[85.177803,27.982216],[85.177947,27.981961],[85.178609,27.981348],[85.179064,27.980492],[85.179096,27.980164],[85.179806,27.978887],[85.179939,27.978478],[85.180133,27.97821],[85.18021,27.977978],[85.180586,27.97719]]},"properties":{"osm_id":340476880,"highway":"unclassified","name":null,"ref":"28A019R"}},{"type":"Feature","geometry":{"type":"LineString","coordinates":[[85.175517,27.983138],[85.175622,27.98261]]},"properties":{"osm_id":340476882,"highway":"unclassified","name":null,"ref":"28A019R"}},{"type":"Feature","geometry":{"type":"LineString","coordinates":[[85.217085,27.955261],[85.21687,27.955532],[85.216739,27.955649],[85.216458,27.955564],[85.216276,27.955737],[85.216172,27.956016],[85.215999,27.956094],[85.215885,27.956091],[85.215622,27.955982],[85.215103,27.955624],[85.214979,27.955297],[85.21485,27.955244],[85.214385,27.955278],[85.214072,27.955333],[85.213831,27.955429],[85.213629,27.955395],[85.213417,27.955297],[85.213086,27.955002],[85.213067,27.954789],[85.213022,27.954749],[85.212892,27.95473],[85.212657,27.954875],[85.212453,27.954833],[85.211838,27.955064],[85.211647,27.95504],[85.21145,27.954893],[85.211035,27.954699],[85.210534,27.954247],[85.210012,27.954081],[85.209766,27.953757],[85.209577,27.953812],[85.20938,27.953827],[85.209111,27.953802],[85.208862,27.953878],[85.208451,27.95368],[85.208387,27.953586],[85.208599,27.953593],[85.208857,27.953685],[85.209021,27.953568],[85.209163,27.953513],[85.209497,27.953433],[85.209585,27.95344],[85.209767,27.953262],[85.209958,27.953224],[85.210254,27.953384],[85.210418,27.953357],[85.211246,27.953027],[85.211303,27.953092],[85.211286,27.953243],[85.211323,27.95328],[85.211389,27.953269],[85.211544,27.953046],[85.211656,27.953002],[85.211976,27.95296],[85.212881,27.952949],[85.212972,27.952906],[85.212958,27.95282],[85.212888,27.952783],[85.212442,27.952802],[85.212135,27.952515],[85.21198,27.952509],[85.211855,27.952595],[85.211683,27.952605],[85.211521,27.952502],[85.211333,27.952454],[85.210878,27.952713],[85.21073,27.95265],[85.210552,27.952517],[85.210232,27.952382],[85.210186,27.952328],[85.209886,27.952266],[85.20969,27.952261],[85.209326,27.95233],[85.208978,27.952336],[85.208845,27.952388],[85.208762,27.952141],[85.208529,27.951776],[85.208352,27.951697],[85.208222,27.951711],[85.207825,27.951626],[85.207584,27.951524],[85.206995,27.951639],[85.206643,27.951818]]},"properties":{"osm_id":340585200,"highway":"unclassified","name":null,"ref":null}},{"type":"Feature","geometry":{"type":"LineString","coordinates":[[85.200293,27.970047],[85.20112,27.970067],[85.202759,27.97055],[85.202986,27.970836],[85.203313,27.970957],[85.203484,27.970855],[85.203854,27.970779],[85.203929,27.970797],[85.204173,27.971019],[85.204299,27.971037],[85.204565,27.970916],[85.204812,27.970746],[85.204833,27.970664],[85.204712,27.970612],[85.204679,27.970493]]},"properties":{"osm_id":340586184,"highway":"unclassified","name":null,"ref":null}},{"type":"Feature","geometry":{"type":"MultiLineString","coordinates":[[[85.208775,27.990002],[85.208666,27.990002]],[[85.206679,27.990002],[85.206628,27.989931],[85.206626,27.989867],[85.206832,27.989809],[85.206871,27.989734],[85.206699,27.98941]]]},"properties":{"osm_id":340930160,"highway":"unclassified","name":null,"ref":null}},{"type":"Feature","geometry":{"type":"LineString","coordinates":[[85.17,27.952476],[85.17052,27.952616],[85.171024,27.952703]]},"properties":{"osm_id":340942973,"highway":"unclassified","name":null,"ref":null}},{"type":"Feature","geometry":{"type":"LineString","coordinates":[[85.170293,27.976304],[85.170147,27.976163],[85.17,27.976095]]},"properties":{"osm_id":341049677,"highway":"unclassified","name":null,"ref":null}},{"type":"Feature","geometry":{"type":"LineString","coordinates":[[85.176896,27.951659],[85.177004,27.951819],[85.17698,27.952033],[85.17704,27.952224],[85.177175,27.95241],[85.177419,27.952453],[85.177592,27.952279],[85.177801,27.952149],[85.178021,27.952113],[85.178305,27.951826],[85.178403,27.95151],[85.178468,27.951453],[85.178631,27.951424],[85.178826,27.951338],[85.179135,27.951108],[85.179346,27.951007],[85.179436,27.950907],[85.17968,27.950856],[85.179867,27.950864],[85.180381,27.950579],[85.180432,27.950634],[85.180583,27.950671],[85.180768,27.950637],[85.180934,27.950666],[85.181053,27.950755],[85.181306,27.951137],[85.181485,27.951194],[85.181712,27.951208],[85.181948,27.951431]]},"properties":{"osm_id":341217824,"highway":"unclassified","name":null,"ref":null}},{"type":"Feature","geometry":{"type":"LineString","coordinates":[[85.185882,27.973907],[85.185662,27.97448]]},"properties":{"osm_id":341461646,"highway":"primary","name":"Falaakhu River Bridge","ref":"NH42"}},{"type":"Feature","geometry":{"type":"LineString","coordinates":[[85.185958,27.981109],[85.185999,27.98096],[85.18601,27.980666],[85.186337,27.980486],[85.186398,27.980356],[85.186341,27.980231],[85.186132,27.980179],[85.186033,27.980099],[85.185732,27.979628],[85.18572,27.979484],[85.186113,27.979117],[85.186201,27.979071],[85.186325,27.97905],[85.187004,27.979054],[85.187266,27.978992],[85.187337,27.978879],[85.18729,27.978634],[85.187316,27.978582],[85.187396,27.978549],[85.187475,27.978582],[85.187504,27.978631],[85.187548,27.978886],[85.18746,27.979071],[85.186782,27.979298],[85.186345,27.979394],[85.186285,27.979443],[85.186241,27.979571],[85.186296,27.979709],[85.186424,27.979805],[85.186934,27.979844],[85.187081,27.979879],[85.187551,27.980085],[85.187642,27.980154],[85.187715,27.980262],[85.18784,27.980657],[85.187843,27.980794],[85.187699,27.980896],[85.187335,27.980887],[85.18719,27.980982],[85.187145,27.98111],[85.187176,27.981246],[85.187377,27.981534],[85.18736,27.981613],[85.187245,27.981794],[85.187254,27.981924],[85.187331,27.981974],[85.187789,27.982057],[85.187844,27.982097],[85.187884,27.982181],[85.187867,27.982344],[85.187618,27.982747],[85.187603,27.982857],[85.187683,27.982952],[85.188072,27.983026],[85.188377,27.983119],[85.188504,27.98311],[85.18899,27.982965],[85.18938,27.98304],[85.189472,27.983003],[85.189487,27.982944],[85.189445,27.98288],[85.189276,27.98282],[85.188879,27.982779],[85.188426,27.982868],[85.188303,27.98284],[85.188244,27.982786],[85.188229,27.982699],[85.188343,27.982374],[85.188383,27.982057],[85.188368,27.981914],[85.188273,27.98172],[85.188277,27.981575],[85.188345,27.981474],[85.188633,27.981214],[85.18878,27.981161],[85.188892,27.981181],[85.189249,27.981358],[85.189676,27.981366],[85.189795,27.981398],[85.190211,27.981706],[85.190577,27.982431],[85.190658,27.982539],[85.190818,27.982628],[85.191169,27.982653],[85.191472,27.982766],[85.191607,27.982755],[85.191709,27.982713],[85.191987,27.982537],[85.192149,27.982471],[85.192966,27.982315],[85.193286,27.982173],[85.193632,27.982066],[85.194111,27.982017],[85.19426,27.982063],[85.194283,27.982166],[85.194223,27.982222],[85.193826,27.982169],[85.19354,27.982215],[85.193393,27.982277],[85.192975,27.982665],[85.192557,27.982824],[85.192198,27.983011],[85.192032,27.983112],[85.191778,27.983362],[85.191708,27.983561],[85.191766,27.98377],[85.19175,27.983909],[85.191589,27.984298],[85.191509,27.984613],[85.191303,27.984929],[85.191084,27.985426],[85.190794,27.985749],[85.190757,27.98585],[85.190753,27.98604],[85.190793,27.986119],[85.190963,27.986259],[85.191061,27.986466],[85.19106,27.986721],[85.190961,27.987224],[85.190997,27.9873],[85.191079,27.987342],[85.191181,27.987294],[85.191216,27.987047],[85.19123,27.986381],[85.19114,27.986106],[85.191181,27.985964],[85.191782,27.98563],[85.192076,27.985548],[85.192202,27.985485],[85.192269,27.985389],[85.192396,27.985051],[85.192597,27.984878],[85.192756,27.984651],[85.192886,27.984573],[85.193226,27.984463],[85.193525,27.984265],[85.193683,27.984239],[85.193963,27.984273],[85.194477,27.984512],[85.194644,27.984542],[85.194752,27.984535],[85.195856,27.984217],[85.196071,27.983979],[85.196203,27.983486],[85.19622,27.983231],[85.196304,27.983058],[85.196382,27.982994],[85.19648,27.982967],[85.196604,27.983005],[85.196888,27.983312],[85.197226,27.983449],[85.197394,27.9837],[85.197615,27.98383],[85.197873,27.984183],[85.197954,27.984259],[85.198025,27.984274],[85.198105,27.984271],[85.198425,27.984121],[85.198821,27.984155],[85.199079,27.984034],[85.199371,27.983954],[85.199454,27.983887],[85.199646,27.983602],[85.19973,27.983543],[85.200223,27.983294],[85.200734,27.983238],[85.201035,27.982986],[85.201216,27.982958],[85.201374,27.98297],[85.201748,27.983159],[85.201877,27.983132],[85.202157,27.982997],[85.202438,27.982956],[85.202558,27.983006],[85.202599,27.983091],[85.202542,27.983154],[85.202201,27.983162],[85.202106,27.983229],[85.202049,27.98369],[85.201954,27.983779],[85.201784,27.983769],[85.201457,27.983631],[85.201256,27.983597],[85.200982,27.983675],[85.200965,27.983809],[85.201007,27.983868],[85.201119,27.9839],[85.201383,27.98387],[85.202043,27.984155],[85.202151,27.98416],[85.202273,27.984077],[85.202374,27.983879],[85.202441,27.983841],[85.202832,27.983837],[85.203175,27.983747],[85.203662,27.983853],[85.203786,27.983809],[85.204058,27.983619],[85.204352,27.983592],[85.204609,27.983525],[85.204785,27.983581],[85.20489,27.983671],[85.204958,27.983832],[85.204987,27.98415],[85.205066,27.984272],[85.205148,27.984314],[85.205574,27.984402],[85.205788,27.984562],[85.205889,27.984567],[85.206695,27.984333],[85.207014,27.984424],[85.207326,27.984435],[85.207963,27.984663],[85.208229,27.984597],[85.208377,27.984596],[85.208503,27.98469],[85.208505,27.984825],[85.208403,27.984876],[85.208059,27.9848],[85.207512,27.984806],[85.206956,27.984746],[85.206833,27.984746],[85.206786,27.984777],[85.206785,27.98484],[85.206837,27.984914],[85.207187,27.984898],[85.207309,27.984946],[85.207532,27.985218],[85.208181,27.985363],[85.208328,27.985361],[85.209243,27.985212],[85.209745,27.98526],[85.209894,27.985375],[85.209892,27.985489],[85.20984,27.985588],[85.209787,27.985643],[85.209672,27.985686],[85.209349,27.985722],[85.208766,27.985639],[85.20813,27.985813],[85.207161,27.98615],[85.206964,27.986189],[85.20624,27.986077],[85.206122,27.986103],[85.205648,27.9864],[85.205466,27.986439],[85.205306,27.986425],[85.204931,27.986297],[85.204777,27.986226],[85.204679,27.986053],[85.204566,27.986048],[85.204526,27.986107],[85.204581,27.98624],[85.204861,27.986452],[85.205208,27.986587],[85.205407,27.986756],[85.205978,27.986881],[85.206258,27.986883],[85.20665,27.986975],[85.207517,27.986953],[85.207695,27.986873],[85.208074,27.98656],[85.208182,27.986544],[85.208249,27.98657],[85.208279,27.98668],[85.208222,27.986731],[85.20801,27.9868],[85.207869,27.986897],[85.207484,27.987313],[85.207159,27.987395],[85.206717,27.987606],[85.206372,27.987717],[85.20538,27.987674],[85.205086,27.987628],[85.204735,27.987701],[85.20453,27.987681],[85.204418,27.987605],[85.204331,27.987468],[85.20428,27.987288],[85.204137,27.987124],[85.203971,27.987007],[85.203781,27.986951],[85.203539,27.986961],[85.203335,27.987022],[85.202832,27.987455],[85.202068,27.987679],[85.201948,27.987767],[85.201594,27.988174],[85.201137,27.988203],[85.201055,27.988251],[85.200776,27.988531],[85.200345,27.988617],[85.200195,27.988727],[85.199783,27.989208],[85.199673,27.989289],[85.198887,27.989506],[85.1988,27.989553],[85.198749,27.989632],[85.198683,27.989917],[85.19863,27.989983],[85.198567,27.990002]]},"properties":{"osm_id":341461647,"highway":"primary","name":"Pasang Lhamu Highway","ref":"NH18"}},{"type":"Feature","geometry":{"type":"LineString","coordinates":[[85.180586,27.97719],[85.180514,27.977252],[85.180465,27.97722],[85.180504,27.977118],[85.18044,27.976732],[85.18051,27.976417],[85.180492,27.976148],[85.180605,27.975645],[85.180584,27.975377],[85.180509,27.975129],[85.180344,27.974932],[85.180362,27.974763],[85.18034,27.9747],[85.179897,27.974313],[85.179795,27.974291],[85.179199,27.974294],[85.178728,27.974337],[85.178282,27.974237],[85.177892,27.974004],[85.17784,27.974008],[85.177512,27.974529],[85.177455,27.974817],[85.177754,27.975173],[85.177875,27.975569],[85.177697,27.976116],[85.177572,27.976276]]},"properties":{"osm_id":341462132,"highway":"unclassified","name":null,"ref":null}},{"type":"Feature","geometry":{"type":"LineString","coordinates":[[85.182299,27.973309],[85.182308,27.973233],[85.182424,27.973132],[85.182533,27.973087],[85.1827,27.973178],[85.182935,27.973046],[85.18316,27.973006],[85.183407,27.973117],[85.183493,27.973117],[85.183774,27.972742],[85.183763,27.972579],[85.183959,27.972526]]},"properties":{"osm_id":341462133,"highway":"unclassified","name":null,"ref":null}},{"type":"Feature","geometry":{"type":"LineString","coordinates":[[85.180468,27.972739],[85.180409,27.972738],[85.18032,27.972893],[85.180181,27.972994],[85.180108,27.973016],[85.179913,27.97293],[85.17966,27.972676],[85.179131,27.971773],[85.17889,27.971494],[85.177873,27.970667],[85.177672,27.970606],[85.177482,27.970682],[85.177379,27.970652],[85.177109,27.970433],[85.17689,27.970438],[85.176476,27.970078],[85.175982,27.969723],[85.175684,27.969545],[85.175488,27.969378],[85.175073,27.96877],[85.174741,27.968432],[85.174773,27.968147],[85.174967,27.967894],[85.174939,27.967837],[85.175147,27.96754],[85.175206,27.967128]]},"properties":{"osm_id":341462134,"highway":"track","name":null,"ref":null}},{"type":"Feature","geometry":{"type":"LineString","coordinates":[[85.191191,27.95129],[85.191344,27.951456],[85.191564,27.951331]]},"properties":{"osm_id":341462135,"highway":"unclassified","name":null,"ref":null}},{"type":"Feature","geometry":{"type":"LineString","coordinates":[[85.175843,27.950001],[85.175879,27.950053],[85.175904,27.950457],[85.176019,27.950608],[85.176263,27.950764],[85.176445,27.950958],[85.176627,27.951432],[85.176896,27.951659]]},"properties":{"osm_id":341462136,"highway":"unclassified","name":null,"ref":null}},{"type":"Feature","geometry":{"type":"LineString","coordinates":[[85.185536,27.97238],[85.185235,27.972476],[85.185081,27.972434]]},"properties":{"osm_id":341462137,"highway":"unclassified","name":null,"ref":null}},{"type":"Feature","geometry":{"type":"LineString","coordinates":[[85.177572,27.976276],[85.177041,27.976771],[85.176892,27.977141]]},"properties":{"osm_id":341462138,"highway":"track","name":null,"ref":null}},{"type":"Feature","geometry":{"type":"MultiLineString","coordinates":[[[85.191564,27.951331],[85.191652,27.951264],[85.191719,27.951267],[85.191848,27.951191],[85.191915,27.95089],[85.192155,27.950811],[85.192232,27.950293],[85.192441,27.950002]],[[85.198635,27.950002],[85.198619,27.950209],[85.198715,27.950277],[85.198948,27.950279],[85.199045,27.950445],[85.199161,27.950564],[85.199588,27.950639],[85.199728,27.950467],[85.19996,27.950505],[85.200095,27.950388],[85.200366,27.950389],[85.200586,27.950267],[85.201344,27.950347],[85.201551,27.950002]],[[85.202219,27.950002],[85.202305,27.950049],[85.202476,27.950253],[85.20289,27.950583],[85.203293,27.950662],[85.203442,27.950805]]]},"properties":{"osm_id":341462139,"highway":"unclassified","name":null,"ref":null}},{"type":"Feature","geometry":{"type":"LineString","coordinates":[[85.170068,27.963355],[85.17,27.963364]]},"properties":{"osm_id":341587483,"highway":"service","name":null,"ref":null}},{"type":"Feature","geometry":{"type":"LineString","coordinates":[[85.170631,27.963638],[85.17025,27.963347],[85.170068,27.963355]]},"properties":{"osm_id":341587490,"highway":"service","name":null,"ref":null}},{"type":"Feature","geometry":{"type":"LineString","coordinates":[[85.17073,27.964138],[85.170816,27.964139],[85.170952,27.964223],[85.171172,27.964305],[85.171582,27.964342],[85.171984,27.964424],[85.172023,27.964353],[85.172068,27.964362],[85.172265,27.964117],[85.172105,27.964002],[85.171481,27.963976],[85.171045,27.963883],[85.170766,27.963754],[85.170631,27.963638]]},"properties":{"osm_id":341587491,"highway":"service","name":null,"ref":null}},{"type":"Feature","geometry":{"type":"LineString","coordinates":[[85.17386,27.975392],[85.173563,27.974989],[85.173553,27.97464],[85.17358,27.974581],[85.173487,27.974487]]},"properties":{"osm_id":341623270,"highway":"track","name":null,"ref":null}},{"type":"Feature","geometry":{"type":"LineString","coordinates":[[85.17,27.968034],[85.171018,27.968874],[85.171263,27.969235],[85.171352,27.969244],[85.171415,27.969142],[85.171457,27.968971],[85.17153,27.968916],[85.171651,27.968962],[85.17175,27.969064],[85.17186,27.969322],[85.17187,27.969433],[85.17175,27.969452],[85.171604,27.96941],[85.17153,27.969424],[85.171488,27.969493],[85.171515,27.969567],[85.17242,27.970145],[85.172655,27.970478],[85.172849,27.970686],[85.17321,27.970884],[85.173628,27.971273],[85.173555,27.97149],[85.173607,27.971638],[85.173749,27.971864],[85.173963,27.972026],[85.174188,27.972124],[85.174533,27.972603],[85.174619,27.972768],[85.174484,27.972987],[85.174128,27.97313],[85.17411,27.973191],[85.174156,27.973252],[85.174465,27.973292],[85.174603,27.97343],[85.174722,27.973431],[85.175237,27.973654],[85.17527,27.973868],[85.175666,27.97404],[85.175871,27.974197],[85.176129,27.974671],[85.176339,27.974937],[85.176702,27.974931],[85.176964,27.97499],[85.177352,27.974977],[85.177519,27.975001],[85.177754,27.975173]]},"properties":{"osm_id":341648830,"highway":"unclassified","name":null,"ref":null}},{"type":"Feature","geometry":{"type":"LineString","coordinates":[[85.206695,27.984333],[85.20674,27.98423],[85.206817,27.984197],[85.207142,27.984244],[85.207315,27.984175],[85.207421,27.984168],[85.207623,27.984207],[85.207692,27.984271],[85.207736,27.984269],[85.207952,27.984181],[85.208121,27.984193],[85.208459,27.984109],[85.208725,27.984002],[85.209242,27.98393],[85.209294,27.983894],[85.209408,27.983762],[85.209423,27.983641],[85.209517,27.98357],[85.209757,27.983504],[85.209957,27.983397],[85.210433,27.982824],[85.210809,27.98262],[85.211096,27.982209],[85.211364,27.981709],[85.211141,27.981409],[85.211141,27.981352],[85.211232,27.981368],[85.211273,27.981347],[85.211324,27.980973],[85.211206,27.981096],[85.210961,27.981172],[85.210768,27.981423],[85.210715,27.981612],[85.210342,27.981837]]},"properties":{"osm_id":341655358,"highway":"unclassified","name":null,"ref":null}},{"type":"Feature","geometry":{"type":"LineString","coordinates":[[85.206643,27.951818],[85.20627,27.951776],[85.206033,27.951679],[85.205136,27.951586],[85.204815,27.951316],[85.204693,27.951049],[85.204433,27.950966],[85.203938,27.950904],[85.203442,27.950805]]},"properties":{"osm_id":341703383,"highway":"unclassified","name":null,"ref":null}},{"type":"Feature","geometry":{"type":"LineString","coordinates":[[85.179036,27.987532],[85.178897,27.986997],[85.178969,27.986484],[85.179114,27.986012],[85.179072,27.985802],[85.178845,27.985511],[85.178937,27.985319],[85.17881,27.984153],[85.17887,27.983831],[85.178829,27.983735],[85.178493,27.983878],[85.17742,27.983906],[85.176941,27.983775],[85.176461,27.983846]]},"properties":{"osm_id":341705731,"highway":"unclassified","name":null,"ref":null}},{"type":"Feature","geometry":{"type":"LineString","coordinates":[[85.180586,27.97719],[85.180744,27.976938],[85.180888,27.976566],[85.181191,27.976029],[85.181159,27.975742],[85.181242,27.974953],[85.180849,27.97418],[85.180555,27.973216],[85.180421,27.972485],[85.180082,27.97164],[85.179851,27.971317],[85.179543,27.971002],[85.177881,27.970229],[85.17776,27.970129],[85.177627,27.969855],[85.177012,27.969287],[85.1762,27.968395],[85.175635,27.967606],[85.175614,27.967378],[85.175567,27.967293],[85.175206,27.967128],[85.174661,27.966706],[85.174038,27.966323],[85.173699,27.966273],[85.173507,27.966212],[85.173421,27.966151],[85.173414,27.966052],[85.173456,27.965904],[85.173362,27.96577],[85.173116,27.965668],[85.172846,27.965631],[85.172501,27.965401],[85.171974,27.965323],[85.171103,27.964991],[85.170931,27.96488],[85.170805,27.964716],[85.170851,27.964537],[85.170825,27.964387]]},"properties":{"osm_id":341705740,"highway":"unclassified","name":null,"ref":"28A019R"}},{"type":"Feature","geometry":{"type":"LineString","coordinates":[[85.182395,27.951],[85.182148,27.950243],[85.182128,27.950065],[85.182201,27.950002]]},"properties":{"osm_id":342277108,"highway":"track","name":null,"ref":null}},{"type":"Feature","geometry":{"type":"LineString","coordinates":[[85.182238,27.953673],[85.1821,27.953818],[85.181712,27.953667],[85.181511,27.953755],[85.181369,27.954158],[85.180772,27.954708],[85.180056,27.95481],[85.179507,27.955008],[85.179257,27.954932],[85.178705,27.955156],[85.178116,27.955196],[85.17772,27.955156],[85.177496,27.955084],[85.177272,27.95478],[85.177422,27.954645],[85.1775,27.954464],[85.177362,27.954231],[85.177388,27.95395],[85.177869,27.954025],[85.178717,27.953519],[85.179409,27.953291],[85.179988,27.95305],[85.180218,27.952674],[85.180416,27.952232],[85.180401,27.951883],[85.180552,27.951535],[85.180954,27.95111],[85.181001,27.950704]]},"properties":{"osm_id":342277414,"highway":"track","name":null,"ref":null}},{"type":"Feature","geometry":{"type":"LineString","coordinates":[[85.211757,27.98853],[85.211584,27.988252],[85.211499,27.988032],[85.211382,27.987903],[85.2113,27.98783],[85.210947,27.987686],[85.210855,27.987608],[85.210767,27.987449],[85.210811,27.987218],[85.211004,27.986992],[85.211125,27.986764],[85.211115,27.98661],[85.211064,27.986563],[85.210626,27.98656],[85.210346,27.986299],[85.210075,27.985984],[85.210027,27.985764],[85.20984,27.985588]]},"properties":{"osm_id":342538198,"highway":"unclassified","name":null,"ref":"29A011"}},{"type":"Feature","geometry":{"type":"LineString","coordinates":[[85.210421,27.967843],[85.210328,27.968356],[85.210746,27.968448],[85.211253,27.968428],[85.211619,27.968507],[85.212716,27.96854],[85.213231,27.968283],[85.214082,27.968316],[85.214239,27.967756],[85.214478,27.967723],[85.21506,27.967894],[85.215605,27.968131],[85.215933,27.968019],[85.215903,27.967815],[85.215941,27.967644],[85.217433,27.967709],[85.217929,27.968018],[85.218,27.968184],[85.218094,27.968285],[85.219506,27.969168],[85.21971,27.969199],[85.219784,27.969178],[85.219792,27.969123],[85.22,27.969059]]},"properties":{"osm_id":342542910,"highway":"unclassified","name":null,"ref":null}},{"type":"Feature","geometry":{"type":"LineString","coordinates":[[85.195831,27.953228],[85.195795,27.953041],[85.19581,27.952757],[85.195767,27.952624],[85.195853,27.952513],[85.195924,27.952516],[85.195987,27.952537],[85.196064,27.952721],[85.196099,27.952927],[85.196306,27.953214],[85.196359,27.953875],[85.196469,27.954081],[85.196681,27.954368],[85.196955,27.954567],[85.197008,27.954787],[85.196925,27.954958],[85.196721,27.955129],[85.196786,27.955192],[85.197033,27.955233],[85.197483,27.955389],[85.197738,27.955813],[85.197891,27.955925],[85.19792,27.956055],[85.198135,27.956074],[85.198449,27.956098],[85.198768,27.955783],[85.199071,27.955792],[85.199374,27.955503],[85.199538,27.955408],[85.200493,27.95523],[85.200619,27.955081],[85.201398,27.954478],[85.202078,27.954482],[85.202445,27.95452],[85.20266,27.954401],[85.202781,27.954292],[85.202872,27.954081],[85.20303,27.953892],[85.203038,27.953816],[85.202891,27.953783],[85.202681,27.953823],[85.202327,27.953968],[85.202169,27.953982],[85.202032,27.953543],[85.201896,27.953484],[85.201598,27.953435],[85.201539,27.953375],[85.200954,27.953397],[85.200707,27.953432],[85.200552,27.953543],[85.200444,27.953667],[85.200423,27.953799],[85.200605,27.953842],[85.200817,27.95379],[85.20093,27.953722],[85.201638,27.953688]]},"properties":{"osm_id":343252533,"highway":"unclassified","name":null,"ref":null}},{"type":"Feature","geometry":{"type":"LineString","coordinates":[[85.208387,27.953586],[85.208336,27.953611],[85.20777,27.953581],[85.207491,27.953726],[85.207209,27.953965],[85.207037,27.954043],[85.206632,27.95401],[85.206243,27.953804],[85.205897,27.953878],[85.205648,27.953873],[85.205441,27.953773],[85.204972,27.953667],[85.204709,27.953759],[85.204519,27.953972],[85.204127,27.954242],[85.20398,27.954278],[85.203851,27.954278],[85.203762,27.954245],[85.203462,27.954484],[85.203242,27.954468],[85.202609,27.954539],[85.202445,27.95452]]},"properties":{"osm_id":343252535,"highway":"unclassified","name":null,"ref":null}},{"type":"Feature","geometry":{"type":"LineString","coordinates":[[85.216739,27.955649],[85.216668,27.955571],[85.216781,27.955585],[85.216874,27.955515],[85.217154,27.955191],[85.217294,27.955103],[85.217565,27.955067],[85.217853,27.954947],[85.218058,27.954534],[85.218437,27.954225],[85.218733,27.954165],[85.218865,27.954106],[85.219062,27.953926],[85.219489,27.953777],[85.21966,27.953553],[85.22,27.95347]]},"properties":{"osm_id":344383088,"highway":"unclassified","name":null,"ref":null}},{"type":"Feature","geometry":{"type":"LineString","coordinates":[[85.184861,27.970533],[85.185536,27.97238],[85.185917,27.973602],[85.185882,27.973907]]},"properties":{"osm_id":345313941,"highway":"primary","name":"Pasang Lhamu Highway","ref":"NH42"}},{"type":"Feature","geometry":{"type":"LineString","coordinates":[[85.184791,27.970312],[85.184861,27.970533]]},"properties":{"osm_id":345313942,"highway":"primary","name":"Pasang Lhamu Highway","ref":"F21"}},{"type":"Feature","geometry":{"type":"LineString","coordinates":[[85.172141,27.982533],[85.17201,27.982544],[85.171785,27.982622],[85.171549,27.982629],[85.171236,27.982717],[85.171118,27.982795],[85.170952,27.983048],[85.170297,27.983818],[85.17,27.983839]]},"properties":{"osm_id":346389975,"highway":"residential","name":null,"ref":null}},{"type":"Feature","geometry":{"type":"LineString","coordinates":[[85.199337,27.985098],[85.199422,27.984949],[85.1997,27.984872],[85.199846,27.984755],[85.199932,27.984663],[85.200017,27.984492],[85.200494,27.984365],[85.200749,27.984136]]},"properties":{"osm_id":350351130,"highway":"unclassified","name":null,"ref":null}},{"type":"Feature","geometry":{"type":"LineString","coordinates":[[85.19923,27.985148],[85.199337,27.985098]]},"properties":{"osm_id":350351132,"highway":"unclassified","name":null,"ref":null}},{"type":"Feature","geometry":{"type":"LineString","coordinates":[[85.181948,27.951431],[85.182131,27.95148],[85.182208,27.951459],[85.182281,27.951384]]},"properties":{"osm_id":350351134,"highway":"unclassified","name":null,"ref":null}},{"type":"Feature","geometry":{"type":"LineString","coordinates":[[85.182281,27.951384],[85.182513,27.950447],[85.18302,27.950157],[85.183279,27.950123],[85.183751,27.950143],[85.183886,27.950203],[85.183883,27.950497],[85.183948,27.950619],[85.184081,27.950748],[85.184172,27.950751],[85.184339,27.950619],[85.184859,27.950584],[85.185005,27.950648],[85.185428,27.950756],[85.185672,27.95077],[85.185802,27.950806],[85.186135,27.951088],[85.186227,27.951133],[85.186477,27.951159],[85.186583,27.951115],[85.186676,27.951114],[85.186864,27.951187],[85.187076,27.95143],[85.187138,27.951451],[85.187253,27.951456],[85.187322,27.951421],[85.187428,27.9509],[85.187558,27.950727],[85.18764,27.950684],[85.187859,27.950706],[85.188038,27.950665],[85.188506,27.950426],[85.189037,27.950409],[85.189299,27.950669],[85.18987,27.950666],[85.190105,27.950764],[85.190246,27.950875],[85.190882,27.950951],[85.191145,27.951067],[85.191132,27.951189],[85.191191,27.95129]]},"properties":{"osm_id":350351135,"highway":"unclassified","name":null,"ref":null}},{"type":"Feature","geometry":{"type":"LineString","coordinates":[[85.198433,27.979614],[85.198526,27.979665]]},"properties":{"osm_id":356893885,"highway":"unclassified","name":null,"ref":"29A002"}},{"type":"Feature","geometry":{"type":"LineString","coordinates":[[85.198526,27.979665],[85.198619,27.979654],[85.198653,27.979618],[85.198693,27.979495],[85.198809,27.979333],[85.198835,27.979097],[85.199092,27.978863],[85.199174,27.978686],[85.199206,27.978532],[85.199661,27.977984],[85.19976,27.977938],[85.199885,27.977946],[85.200254,27.978128],[85.200383,27.978147],[85.200831,27.977946],[85.201222,27.97781],[85.201403,27.977798],[85.20172,27.977974],[85.201807,27.978234],[85.201863,27.978272],[85.202456,27.978048],[85.203066,27.978004],[85.204285,27.977849],[85.204567,27.977921],[85.20501,27.977947],[85.205382,27.978005],[85.205957,27.978128],[85.20639,27.978277],[85.206567,27.978474],[85.206669,27.978539],[85.206785,27.978553],[85.206864,27.978473],[85.206903,27.978362],[85.20702,27.97755],[85.207052,27.977486],[85.207113,27.977458],[85.207212,27.977469],[85.207664,27.977643],[85.20779,27.977731],[85.207888,27.978123],[85.207999,27.978173],[85.208079,27.978137],[85.208513,27.97768],[85.208761,27.977499],[85.209049,27.977381],[85.209585,27.977352],[85.210081,27.977186],[85.210193,27.977184],[85.210269,27.977233],[85.210392,27.977614],[85.210481,27.977666],[85.210577,27.977639],[85.211006,27.977385],[85.211206,27.977133]]},"properties":{"osm_id":356893892,"highway":"unclassified","name":null,"ref":"29A002"}},{"type":"Feature","geometry":{"type":"LineString","coordinates":[[85.17,27.959894],[85.172761,27.962583],[85.1739,27.963606],[85.174041,27.963679],[85.175453,27.96407],[85.175849,27.96431],[85.176328,27.964459],[85.176605,27.96461],[85.17689,27.965012],[85.177522,27.965473],[85.178085,27.966037],[85.178566,27.966581],[85.17907,27.966923],[85.179201,27.967046],[85.179384,27.967278],[85.179819,27.968154],[85.179993,27.968399],[85.180148,27.96853],[85.180459,27.968728],[85.180931,27.968871],[85.18132,27.968866],[85.181718,27.968781],[85.18202,27.96876],[85.183095,27.969022],[85.183922,27.969268],[85.184203,27.969421],[85.184503,27.969704],[85.184738,27.970107],[85.184791,27.970312]]},"properties":{"osm_id":379104232,"highway":"primary","name":"Pasang Lhamu Highway","ref":"NH42"}},{"type":"Feature","geometry":{"type":"LineString","coordinates":[[85.173421,27.966151],[85.173299,27.966476],[85.173212,27.966529],[85.172866,27.9665],[85.172573,27.966525],[85.172308,27.966442],[85.172031,27.966275],[85.171873,27.966271],[85.171712,27.966287],[85.171623,27.966356],[85.171481,27.966547]]},"properties":{"osm_id":430746883,"highway":"track","name":null,"ref":null}},{"type":"Feature","geometry":{"type":"MultiLineString","coordinates":[[[85.211757,27.98853],[85.211969,27.988833],[85.212065,27.988907],[85.212323,27.989044],[85.212693,27.989167],[85.213047,27.989366],[85.213127,27.989466],[85.21316,27.989622],[85.213047,27.990001]],[[85.217205,27.99],[85.217177,27.989964],[85.217217,27.989802],[85.217445,27.989692],[85.217473,27.989539],[85.21694,27.989285],[85.216877,27.989099],[85.21686,27.988851],[85.216477,27.988539],[85.216828,27.988077],[85.21688,27.987905],[85.217286,27.987606],[85.217459,27.987608],[85.217639,27.987519],[85.217777,27.987252],[85.217867,27.986765],[85.217992,27.986702],[85.218132,27.986723],[85.218312,27.98687],[85.21864,27.987006],[85.218793,27.987146],[85.218916,27.987198],[85.21944,27.986921],[85.21947,27.986522],[85.219673,27.986327],[85.22,27.986321]]]},"properties":{"osm_id":517400220,"highway":"unclassified","name":null,"ref":"29A011"}},{"type":"Feature","geometry":{"type":"LineString","coordinates":[[85.176461,27.983846],[85.176542,27.983999],[85.176412,27.984105],[85.176082,27.984123],[85.175827,27.984096],[85.175367,27.983929],[85.175068,27.983999],[85.174783,27.983942],[85.174633,27.983585],[85.174493,27.983507],[85.174334,27.983497],[85.174154,27.983397],[85.173867,27.983156],[85.173137,27.98271],[85.172912,27.982658],[85.172746,27.98256],[85.172385,27.982512],[85.172141,27.982533]]},"properties":{"osm_id":520471222,"highway":"unclassified","name":null,"ref":"28A019R"}},{"type":"Feature","geometry":{"type":"LineString","coordinates":[[85.176661,27.983397],[85.176536,27.983502],[85.176461,27.983846]]},"properties":{"osm_id":520471223,"highway":"unclassified","name":null,"ref":null}},{"type":"Feature","geometry":{"type":"LineString","coordinates":[[85.176461,27.983846],[85.175806,27.983531],[85.175612,27.983366],[85.175517,27.983138]]},"properties":{"osm_id":520471224,"highway":"unclassified","name":null,"ref":"28A019R"}},{"type":"Feature","geometry":{"type":"MultiLineString","coordinates":[[[85.170825,27.964387],[85.17073,27.964138],[85.170538,27.963942],[85.170489,27.963924],[85.170083,27.96397],[85.17,27.963956]],[[85.17,27.963642],[85.170031,27.963522],[85.17,27.963428]]]},"properties":{"osm_id":533186371,"highway":"unclassified","name":null,"ref":"28A019R"}},{"type":"Feature","geometry":{"type":"LineString","coordinates":[[85.208279,27.986665],[85.20858,27.986684],[85.208582,27.986737],[85.208359,27.987212],[85.208315,27.987426],[85.20816,27.987485],[85.208104,27.987564],[85.208132,27.988009],[85.208055,27.988091],[85.208131,27.988152],[85.208123,27.988204],[85.208286,27.988208]]},"properties":{"osm_id":735443421,"highway":"unclassified","name":null,"ref":null}},{"type":"Feature","geometry":{"type":"LineString","coordinates":[[85.200749,27.984136],[85.200833,27.984124],[85.201133,27.984327],[85.201515,27.984321],[85.201785,27.984365],[85.201997,27.984431],[85.202142,27.984529],[85.202204,27.984538],[85.202311,27.984452],[85.202334,27.984352],[85.202314,27.984142],[85.202273,27.984077]]},"properties":{"osm_id":848861100,"highway":"unclassified","name":null,"ref":null}},{"type":"Feature","geometry":{"type":"LineString","coordinates":[[85.206845,27.989162],[85.207147,27.989119],[85.207445,27.988991],[85.207634,27.988943],[85.208079,27.988913],[85.208505,27.988636],[85.208638,27.988598],[85.208845,27.988608],[85.208973,27.988545],[85.209019,27.988489],[85.209047,27.988344],[85.208897,27.988172],[85.208865,27.988093],[85.209082,27.987985],[85.209097,27.987946],[85.208832,27.987831],[85.208848,27.98779],[85.209202,27.987737],[85.209451,27.987572],[85.209716,27.987465],[85.209965,27.987527]]},"properties":{"osm_id":849699848,"highway":"unclassified","name":null,"ref":null}},{"type":"Feature","geometry":{"type":"LineString","coordinates":[[85.200699,27.990002],[85.200852,27.98979],[85.201256,27.989608],[85.201727,27.989539],[85.201924,27.989585],[85.202977,27.988976],[85.203341,27.988917],[85.203551,27.988818],[85.203762,27.988627],[85.203866,27.988628],[85.203989,27.988793],[85.204079,27.989107],[85.204256,27.989284],[85.204525,27.989347],[85.204825,27.989556],[85.204936,27.98959],[85.205061,27.989575],[85.205177,27.989664],[85.20526,27.989784],[85.205368,27.989817],[85.205672,27.989691],[85.2059,27.989554],[85.206021,27.989557],[85.206258,27.989449],[85.206699,27.98941],[85.206809,27.989194],[85.207064,27.988958]]},"properties":{"osm_id":849699849,"highway":"unclassified","name":null,"ref":null}},{"type":"Feature","geometry":{"type":"LineString","coordinates":[[85.21864,27.987006],[85.218777,27.986957],[85.219019,27.986929],[85.219083,27.986879],[85.219086,27.986315],[85.218818,27.986012],[85.218823,27.985941],[85.219013,27.985816],[85.219263,27.985546],[85.219322,27.985437],[85.219252,27.985335],[85.219292,27.985269],[85.2194,27.985245],[85.219469,27.98515],[85.219676,27.984731],[85.219695,27.984582],[85.219805,27.984406],[85.219869,27.984108],[85.22,27.983939]]},"properties":{"osm_id":855225618,"highway":"unclassified","name":null,"ref":null}},{"type":"Feature","geometry":{"type":"LineString","coordinates":[[85.219592,27.986405],[85.219351,27.986275],[85.219282,27.986154],[85.219553,27.98605],[85.219866,27.985858],[85.22,27.985818]]},"properties":{"osm_id":855225619,"highway":"unclassified","name":null,"ref":null}},{"type":"Feature","geometry":{"type":"LineString","coordinates":[[85.218916,27.987198],[85.218941,27.987255],[85.218816,27.987285],[85.218632,27.987261],[85.218454,27.987278],[85.218276,27.987361],[85.218238,27.987472],[85.21823,27.98768],[85.218178,27.987825],[85.217994,27.988252],[85.217867,27.98838],[85.217839,27.988452],[85.217894,27.988608],[85.218051,27.988712],[85.218549,27.988968],[85.218968,27.989123],[85.219115,27.98923],[85.219523,27.989951],[85.219507,27.99]]},"properties":{"osm_id":855225626,"highway":"unclassified","name":null,"ref":null}},{"type":"Feature","geometry":{"type":"LineString","coordinates":[[85.192886,27.984573],[85.19305,27.984733],[85.193256,27.984797],[85.193339,27.984887],[85.193428,27.985157],[85.193447,27.985321],[85.193549,27.98556],[85.193558,27.985681],[85.19364,27.985778],[85.193648,27.985944],[85.193583,27.986183],[85.193744,27.986424],[85.193589,27.986582],[85.193522,27.9867],[85.193016,27.987132],[85.192931,27.987175],[85.192777,27.987167],[85.192691,27.987107],[85.192679,27.986988],[85.192766,27.986849]]},"properties":{"osm_id":860149093,"highway":"unclassified","name":null,"ref":null}},{"type":"Feature","geometry":{"type":"LineString","coordinates":[[85.195739,27.984267],[85.195324,27.984558],[85.195067,27.984669],[85.194852,27.984822],[85.194761,27.985012],[85.194533,27.985287],[85.194308,27.985314],[85.194157,27.985401],[85.194104,27.985494],[85.194039,27.985742],[85.19397,27.985774],[85.193814,27.985731],[85.19373,27.985775],[85.193645,27.98588],[85.193393,27.98594],[85.193271,27.986005],[85.193229,27.986176],[85.193071,27.986311],[85.192913,27.986531],[85.192604,27.986808],[85.192371,27.98695],[85.192347,27.987066],[85.192519,27.987313],[85.192618,27.987542],[85.192645,27.987682],[85.192615,27.98782],[85.192449,27.988184],[85.192317,27.988376],[85.192167,27.988523],[85.191808,27.988703],[85.191749,27.988776],[85.191754,27.988921],[85.191706,27.988989],[85.191607,27.988994],[85.191459,27.988926],[85.191424,27.988985],[85.191467,27.989548],[85.191438,27.98974],[85.191543,27.990002]]},"properties":{"osm_id":860149094,"highway":"unclassified","name":null,"ref":null}},{"type":"Feature","geometry":{"type":"LineString","coordinates":[[85.200412,27.985812],[85.200863,27.985588],[85.201248,27.985656],[85.20136,27.985645],[85.201635,27.985792],[85.201717,27.985765],[85.201861,27.985607],[85.202129,27.985424],[85.202298,27.98537],[85.202467,27.985356],[85.202664,27.985393],[85.202755,27.985375],[85.20288,27.985282],[85.20332,27.985168],[85.203717,27.984932],[85.203785,27.984994],[85.203888,27.985028],[85.203985,27.984988],[85.204143,27.984874],[85.204259,27.984663],[85.20434,27.984578],[85.204926,27.984581],[85.205161,27.984751],[85.205436,27.984763],[85.205514,27.984836],[85.20561,27.984861],[85.206024,27.984885],[85.206064,27.984805]]},"properties":{"osm_id":860282598,"highway":"unclassified","name":null,"ref":null}},{"type":"Feature","geometry":{"type":"LineString","coordinates":[[85.198157,27.986599],[85.198387,27.986485],[85.198616,27.98628],[85.198716,27.986236],[85.198839,27.98624],[85.199122,27.986323],[85.199205,27.986375],[85.199368,27.986603],[85.199447,27.986645]]},"properties":{"osm_id":860282604,"highway":"unclassified","name":null,"ref":null}},{"type":"Feature","geometry":{"type":"LineString","coordinates":[[85.200015,27.981666],[85.199908,27.981573],[85.199739,27.981495],[85.199605,27.981505],[85.198892,27.981938],[85.198798,27.982005],[85.198736,27.982206],[85.198631,27.982334],[85.198425,27.982417],[85.198329,27.982504],[85.198206,27.982726],[85.198252,27.982778],[85.198244,27.98287],[85.197957,27.982798],[85.197459,27.982736]]},"properties":{"osm_id":860282897,"highway":"unclassified","name":null,"ref":null}},{"type":"Feature","geometry":{"type":"LineString","coordinates":[[85.196382,27.982994],[85.196345,27.982475]]},"properties":{"osm_id":860282898,"highway":"unclassified","name":null,"ref":null}},{"type":"Feature","geometry":{"type":"LineString","coordinates":[[85.206973,27.977968],[85.207072,27.97838],[85.207011,27.978484],[85.206998,27.978615],[85.206785,27.979006],[85.206738,27.979025],[85.206627,27.979022],[85.206512,27.978968],[85.206302,27.978722],[85.206149,27.978656],[85.205679,27.978698],[85.205239,27.978642],[85.205012,27.978685],[85.20448,27.978649],[85.204363,27.978609],[85.204309,27.978622],[85.204283,27.978669],[85.204307,27.97873],[85.204449,27.978827],[85.204521,27.978915],[85.204728,27.979001],[85.204743,27.979039],[85.204711,27.979215],[85.204594,27.979477],[85.20446,27.979596],[85.204234,27.979577],[85.203875,27.979662],[85.203101,27.979636],[85.202924,27.979784],[85.202649,27.979949],[85.202495,27.97996],[85.202433,27.98],[85.202223,27.980249],[85.202146,27.980225],[85.202014,27.980018],[85.201898,27.979983],[85.201768,27.979996],[85.201564,27.980111],[85.201356,27.980157],[85.201171,27.980272],[85.201024,27.980325],[85.200866,27.980342],[85.200717,27.980329],[85.200494,27.980242],[85.200216,27.98023],[85.199999,27.980265],[85.199594,27.9802],[85.199522,27.980235],[85.199268,27.980651],[85.198812,27.980979],[85.198803,27.981023],[85.198839,27.981043],[85.199103,27.980945],[85.19922,27.980938],[85.199487,27.980786]]},"properties":{"osm_id":860282906,"highway":"unclassified","name":null,"ref":null}},{"type":"Feature","geometry":{"type":"LineString","coordinates":[[85.189506,27.977066],[85.189384,27.976976],[85.189126,27.977058],[85.189136,27.9771],[85.189268,27.977193],[85.189346,27.977294],[85.18969,27.977407],[85.189926,27.97745],[85.190351,27.977653],[85.190389,27.977787],[85.190688,27.977994],[85.190833,27.978254],[85.190786,27.978537],[85.190834,27.978717],[85.190991,27.978993],[85.191014,27.979103],[85.190991,27.979342],[85.190949,27.979476],[85.19085,27.979636]]},"properties":{"osm_id":860282955,"highway":"unclassified","name":null,"ref":null}},{"type":"Feature","geometry":{"type":"LineString","coordinates":[[85.193367,27.981234],[85.193504,27.981245],[85.193797,27.981095],[85.193936,27.980843],[85.19403,27.980767],[85.194129,27.980753],[85.194242,27.980806],[85.194292,27.981016],[85.194249,27.981222],[85.194125,27.981241],[85.194002,27.981334],[85.193936,27.981499],[85.193826,27.981626],[85.193921,27.981865],[85.193904,27.981918],[85.193944,27.98192],[85.193893,27.981958],[85.193929,27.981987],[85.193904,27.982036]]},"properties":{"osm_id":860282992,"highway":"unclassified","name":null,"ref":null}},{"type":"Feature","geometry":{"type":"LineString","coordinates":[[85.193115,27.978767],[85.193554,27.978861],[85.19359,27.978909],[85.193605,27.979307],[85.193492,27.98001],[85.193693,27.980289],[85.193708,27.980423],[85.193682,27.980505],[85.193584,27.980757],[85.193491,27.980892],[85.19344,27.981127],[85.193367,27.981234],[85.193044,27.981369],[85.192662,27.981452],[85.192392,27.981628],[85.192139,27.981648]]},"properties":{"osm_id":860283016,"highway":"unclassified","name":null,"ref":null}},{"type":"Feature","geometry":{"type":"LineString","coordinates":[[85.192623,27.982029],[85.192288,27.982224],[85.192003,27.982308],[85.191903,27.982373],[85.191607,27.982755]]},"properties":{"osm_id":860283017,"highway":"unclassified","name":null,"ref":null}},{"type":"Feature","geometry":{"type":"LineString","coordinates":[[85.191708,27.983561],[85.191444,27.983537],[85.191033,27.983367]]},"properties":{"osm_id":860283099,"highway":"unclassified","name":null,"ref":null}},{"type":"Feature","geometry":{"type":"LineString","coordinates":[[85.190061,27.988174],[85.18987,27.98792],[85.189644,27.987892]]},"properties":{"osm_id":860372462,"highway":"unclassified","name":null,"ref":null}},{"type":"Feature","geometry":{"type":"LineString","coordinates":[[85.207218,27.976515],[85.207,27.976717],[85.206718,27.976777],[85.206584,27.976846],[85.206588,27.976892],[85.206716,27.97686],[85.206972,27.97687],[85.206972,27.976905],[85.206638,27.977035],[85.206672,27.977137],[85.206703,27.977164],[85.207126,27.97711],[85.207463,27.977318],[85.20792,27.977435],[85.20794,27.977723],[85.20805,27.977968],[85.208124,27.97798],[85.208311,27.977888]]},"properties":{"osm_id":860372481,"highway":"unclassified","name":null,"ref":null}},{"type":"Feature","geometry":{"type":"LineString","coordinates":[[85.188582,27.981258],[85.188652,27.98107],[85.188741,27.981025],[85.189147,27.981093],[85.189421,27.981095],[85.1896,27.980954],[85.18965,27.980946],[85.190644,27.981287],[85.190725,27.981344],[85.190932,27.981674],[85.191141,27.981841],[85.191242,27.981873],[85.191542,27.981913],[85.19175,27.981812],[85.192009,27.981746],[85.192139,27.981648]]},"properties":{"osm_id":860372497,"highway":"unclassified","name":null,"ref":null}},{"type":"Feature","geometry":{"type":"LineString","coordinates":[[85.208779,27.985285],[85.208825,27.985183],[85.209065,27.985022],[85.209473,27.984892]]},"properties":{"osm_id":860390197,"highway":"unclassified","name":null,"ref":null}},{"type":"Feature","geometry":{"type":"LineString","coordinates":[[85.208475,27.984844],[85.208584,27.984919],[85.208674,27.984901],[85.208724,27.984862],[85.208786,27.984693],[85.208924,27.984636],[85.209203,27.984611],[85.209427,27.984666],[85.209616,27.984583],[85.209764,27.984595],[85.209835,27.984572],[85.21023,27.9842],[85.210288,27.984088]]},"properties":{"osm_id":860390219,"highway":"unclassified","name":null,"ref":null}},{"type":"Feature","geometry":{"type":"LineString","coordinates":[[85.206469,27.984617],[85.206446,27.984498],[85.20649,27.984432],[85.206735,27.984344]]},"properties":{"osm_id":860390269,"highway":"unclassified","name":null,"ref":null}},{"type":"Feature","geometry":{"type":"LineString","coordinates":[[85.206302,27.984776],[85.206667,27.984475],[85.206735,27.984344]]},"properties":{"osm_id":860390272,"highway":"unclassified","name":null,"ref":null}},{"type":"Feature","geometry":{"type":"LineString","coordinates":[[85.172773,27.962594],[85.172659,27.962667],[85.17248,27.96264],[85.17235,27.962726],[85.172317,27.962806],[85.172427,27.962956]]},"properties":{"osm_id":886361371,"highway":"track","name":null,"ref":null}},{"type":"Feature","geometry":{"type":"LineString","coordinates":[[85.206142,27.96315],[85.206264,27.963457],[85.206321,27.963719],[85.206155,27.963931],[85.205866,27.964121],[85.205703,27.964337],[85.205687,27.964674],[85.205638,27.96485],[85.205407,27.964962],[85.205236,27.965217],[85.204894,27.965245],[85.204215,27.965109],[85.203882,27.96526],[85.203614,27.965238],[85.203232,27.965324],[85.202923,27.965522],[85.202923,27.966226],[85.202805,27.96727],[85.202488,27.9674],[85.201841,27.967428],[85.20165,27.967263],[85.201508,27.967278],[85.201349,27.967515],[85.201138,27.967744],[85.200813,27.967953],[85.200496,27.968107],[85.20013,27.96824],[85.200589,27.968355],[85.200983,27.968617],[85.201313,27.968782],[85.201239,27.968908],[85.200516,27.968707],[85.200276,27.968689]]},"properties":{"osm_id":886378873,"highway":"track","name":null,"ref":null}},{"type":"Feature","geometry":{"type":"LineString","coordinates":[[85.200276,27.968689],[85.200373,27.968954],[85.200715,27.969375],[85.200691,27.969486],[85.200272,27.969572],[85.200012,27.969683],[85.199914,27.969611],[85.199597,27.969604],[85.199203,27.969719],[85.198914,27.970046],[85.198516,27.970401],[85.198268,27.970717],[85.198255,27.970832],[85.198447,27.970699],[85.198849,27.970491],[85.199109,27.970545],[85.199195,27.970703],[85.199219,27.970857],[85.198881,27.970739],[85.198731,27.970829],[85.198345,27.971314],[85.198357,27.9714],[85.198817,27.971245],[85.199024,27.971263],[85.199333,27.971468],[85.19941,27.971604],[85.199276,27.97159],[85.199105,27.971511],[85.19893,27.971497],[85.198658,27.971669],[85.198548,27.971985],[85.19843,27.972111],[85.197548,27.972136],[85.197898,27.972362],[85.197959,27.972452],[85.197215,27.972222],[85.196995,27.972078],[85.197076,27.972218],[85.197365,27.972448],[85.197121,27.972459],[85.196865,27.972326],[85.196853,27.972398],[85.197198,27.972563],[85.197495,27.97257],[85.197731,27.972743],[85.197946,27.972775],[85.198955,27.972545],[85.199357,27.97257],[85.199886,27.972394],[85.200158,27.972265],[85.200857,27.971741],[85.201301,27.971461],[85.201731,27.971335],[85.202122,27.971349],[85.202443,27.971314],[85.202833,27.971461],[85.202939,27.971414],[85.203154,27.971206],[85.203368,27.970924]]},"properties":{"osm_id":886378874,"highway":"track","name":null,"ref":null}},{"type":"Feature","geometry":{"type":"LineString","coordinates":[[85.196859,27.972363],[85.196678,27.972204],[85.196487,27.972125],[85.196219,27.972053],[85.195999,27.972067],[85.195698,27.97229],[85.195178,27.97247],[85.195019,27.972312],[85.194832,27.972269],[85.194308,27.97257],[85.194003,27.972491],[85.193694,27.972642],[85.193523,27.972638],[85.193251,27.972613],[85.193133,27.972552],[85.192991,27.972175],[85.192934,27.972286],[85.19286,27.972617],[85.192889,27.972725],[85.193174,27.972875],[85.19321,27.972972],[85.192844,27.972926],[85.19269,27.972735],[85.192617,27.972796],[85.192718,27.973033],[85.192609,27.973069],[85.192482,27.972893],[85.192446,27.972753],[85.192397,27.972258],[85.192104,27.972132],[85.191535,27.971985],[85.190651,27.971946],[85.190242,27.971845]]},"properties":{"osm_id":886378875,"highway":"track","name":null,"ref":null}},{"type":"Feature","geometry":{"type":"LineString","coordinates":[[85.202805,27.97145],[85.202912,27.971546],[85.203054,27.971501],[85.20319,27.971404],[85.20345,27.971424]]},"properties":{"osm_id":886398138,"highway":"unclassified","name":null,"ref":null}},{"type":"Feature","geometry":{"type":"LineString","coordinates":[[85.17563,27.986245],[85.175538,27.986543],[85.17553,27.986813],[85.175444,27.987031],[85.175125,27.987478],[85.174972,27.987834],[85.174937,27.987997],[85.174977,27.988104],[85.175305,27.988392],[85.175919,27.988726],[85.176171,27.989056],[85.176319,27.989378],[85.176415,27.989477],[85.176592,27.989586],[85.176584,27.989662],[85.176485,27.989752],[85.176388,27.989704]]},"properties":{"osm_id":886440424,"highway":"unclassified","name":null,"ref":null}},{"type":"Feature","geometry":{"type":"MultiLineString","coordinates":[[[85.174868,27.990001],[85.174723,27.989771],[85.174571,27.989726],[85.174412,27.989742],[85.173839,27.98997],[85.173474,27.990001]],[[85.173404,27.990001],[85.173266,27.989958],[85.173077,27.990001]],[[85.172549,27.99],[85.17227,27.989988],[85.172045,27.989904],[85.172022,27.989807]]]},"properties":{"osm_id":886462017,"highway":"unclassified","name":null,"ref":null}},{"type":"Feature","geometry":{"type":"LineString","coordinates":[[85.190698,27.970734],[85.19093,27.970142],[85.190877,27.96993],[85.191182,27.9697],[85.19145,27.969409],[85.1918,27.968695],[85.192023,27.968404],[85.191966,27.968361],[85.191511,27.968429],[85.190954,27.96863],[85.19021,27.968957],[85.189738,27.969273],[85.189702,27.96956],[85.189576,27.9696],[85.18934,27.969492],[85.188633,27.969352],[85.188364,27.969065],[85.188238,27.969021],[85.187946,27.969165]]},"properties":{"osm_id":886466469,"highway":"unclassified","name":null,"ref":null}},{"type":"Feature","geometry":{"type":"LineString","coordinates":[[85.188222,27.96903],[85.188038,27.96887],[85.187786,27.968519],[85.187595,27.96809],[85.187762,27.968126],[85.18825,27.968375],[85.188936,27.968936],[85.189191,27.968931],[85.189666,27.96886],[85.189612,27.968756],[85.188499,27.968045],[85.187791,27.967382],[85.187029,27.967086],[85.186716,27.967067],[85.186485,27.967136],[85.18638,27.967041],[85.186501,27.967034],[85.186705,27.966906],[85.187563,27.966932],[85.187952,27.967001],[85.188263,27.96723],[85.188598,27.967401],[85.188856,27.967579],[85.189092,27.967609],[85.189333,27.967581],[85.189459,27.967531],[85.189486,27.967439],[85.189446,27.96728],[85.189486,27.967098],[85.189728,27.966806]]},"properties":{"osm_id":886466480,"highway":"unclassified","name":null,"ref":null}},{"type":"Feature","geometry":{"type":"LineString","coordinates":[[85.199659,27.986474],[85.200014,27.986259],[85.200477,27.985756]]},"properties":{"osm_id":886471592,"highway":"unclassified","name":null,"ref":null}},{"type":"Feature","geometry":{"type":"LineString","coordinates":[[85.199447,27.986645],[85.199659,27.986474]]},"properties":{"osm_id":886471593,"highway":"unclassified","name":null,"ref":null}},{"type":"Feature","geometry":{"type":"LineString","coordinates":[[85.171221,27.983959],[85.171165,27.983909],[85.171057,27.983876],[85.170856,27.983919],[85.170737,27.983882],[85.17109,27.983655],[85.171167,27.983564],[85.171118,27.98341],[85.171309,27.983185],[85.171319,27.982938],[85.171284,27.982898],[85.171153,27.982909],[85.171041,27.983002],[85.171013,27.983084],[85.170926,27.983077]]},"properties":{"osm_id":886478119,"highway":"unclassified","name":null,"ref":null}},{"type":"Feature","geometry":{"type":"LineString","coordinates":[[85.181306,27.951137],[85.181672,27.951732],[85.181664,27.951871],[85.181476,27.952129],[85.181436,27.952253],[85.181524,27.952449],[85.181543,27.952627],[85.181838,27.952627],[85.18212,27.95275],[85.182321,27.952634],[85.182479,27.952625],[85.182626,27.952866],[85.182678,27.952767],[85.182745,27.952767],[85.18282,27.952485],[85.182908,27.95234],[85.183501,27.952084],[85.183726,27.952028],[85.183989,27.952039],[85.184249,27.952148],[85.184499,27.952125],[85.184729,27.952156],[85.184979,27.952051],[85.185325,27.952101],[85.185585,27.952184],[85.185977,27.952219],[85.186406,27.952111],[85.186642,27.952006],[85.186744,27.952061],[85.186685,27.952196],[85.186561,27.952336],[85.18647,27.952629],[85.186092,27.952727],[85.185939,27.953115],[85.18559,27.953117],[85.184818,27.953336],[85.184598,27.953423],[85.184394,27.953395],[85.184378,27.953435],[85.185027,27.953544],[85.185024,27.953617],[85.184067,27.953736],[85.183788,27.953629],[85.18389,27.953771],[85.184126,27.953909],[85.184308,27.953911],[85.184343,27.953963],[85.184223,27.954027],[85.183962,27.954042],[85.183957,27.954174],[85.183989,27.954229],[85.18489,27.954214],[85.185384,27.954376],[85.185596,27.954572],[85.185936,27.955003],[85.18617,27.955157],[85.186553,27.955176],[85.186899,27.955288],[85.187267,27.955094],[85.187656,27.955347],[85.187814,27.955537],[85.188015,27.955425],[85.188409,27.95507],[85.18856,27.95498],[85.189026,27.955065],[85.189375,27.955219]]},"properties":{"osm_id":888454844,"highway":"unclassified","name":null,"ref":null}},{"type":"Feature","geometry":{"type":"LineString","coordinates":[[85.22,27.956908],[85.219891,27.956953],[85.219729,27.956851],[85.21948,27.956889],[85.219327,27.956946],[85.219292,27.957034],[85.219477,27.957001],[85.219703,27.957046],[85.219711,27.957112],[85.219544,27.957126],[85.219284,27.957216],[85.219252,27.957278],[85.219711,27.957475],[85.22,27.957676]]},"properties":{"osm_id":890578529,"highway":"unclassified","name":null,"ref":null}},{"type":"Feature","geometry":{"type":"LineString","coordinates":[[85.185987,27.980752],[85.186003,27.980581],[85.186104,27.980441],[85.186097,27.980389],[85.186052,27.980334],[85.185619,27.980079],[85.185173,27.979618],[85.185067,27.979461],[85.184944,27.978921],[85.184809,27.978683],[85.184811,27.978491],[85.18478,27.978452],[85.184728,27.978468],[85.18468,27.978619]]},"properties":{"osm_id":912382935,"highway":"track","name":null,"ref":null}},{"type":"Feature","geometry":{"type":"LineString","coordinates":[[85.184024,27.974892],[85.183976,27.975053],[85.183941,27.975401],[85.183948,27.975968],[85.183923,27.976154],[85.183746,27.976525],[85.183388,27.977111],[85.18331,27.977329],[85.183176,27.978908],[85.183127,27.979258],[85.183013,27.979576],[85.183042,27.979702],[85.18315,27.979842],[85.18318,27.97994],[85.18312,27.980034],[85.182844,27.98012],[85.182766,27.980184],[85.182712,27.980302],[85.18265,27.980675],[85.182464,27.980904],[85.182434,27.981017],[85.182564,27.981677],[85.182781,27.982117],[85.182828,27.982589],[85.18294,27.982775],[85.183295,27.983167],[85.183616,27.983756],[85.183821,27.983929],[85.18402,27.984012],[85.184359,27.984049],[85.184698,27.983947],[85.184912,27.983757],[85.185046,27.983498],[85.185087,27.983304],[85.185076,27.982916],[85.185159,27.982635],[85.185546,27.982119],[85.185636,27.981896],[85.185693,27.981521],[85.185958,27.981109]]},"properties":{"osm_id":912405504,"highway":"primary","name":"Pasang Lhamu Highway","ref":"NH18"}},{"type":"Feature","geometry":{"type":"LineString","coordinates":[[85.186679,27.987149],[85.186769,27.986999],[85.187094,27.986794],[85.187154,27.986593],[85.187225,27.986503],[85.18764,27.9864],[85.187832,27.986399],[85.187868,27.986345],[85.187111,27.98619],[85.187031,27.986223],[85.186823,27.986459],[85.186764,27.986483],[85.186555,27.986354],[85.186394,27.986141],[85.186319,27.986105],[85.186168,27.98619],[85.186012,27.986234],[85.18586,27.986339],[85.18581,27.986341],[85.18578,27.986317],[85.185802,27.986275],[85.186091,27.986061],[85.186229,27.985921],[85.186355,27.985909],[85.186625,27.98599],[85.186708,27.985959],[85.186689,27.985899],[85.186375,27.985764],[85.186137,27.985766],[85.185553,27.986019],[85.185384,27.986133],[85.185226,27.9863],[85.185074,27.986579],[85.184631,27.987193],[85.184518,27.987535],[85.184448,27.987558],[85.184391,27.987517],[85.184152,27.98708],[85.184083,27.986843],[85.184092,27.986703],[85.184206,27.986455],[85.184193,27.986325],[85.184018,27.986123],[85.183766,27.985999],[85.183745,27.985941],[85.183785,27.985831],[85.183858,27.98572],[85.183973,27.985624],[85.184388,27.985451],[85.184577,27.985466],[85.184893,27.985591],[85.185094,27.985522],[85.185286,27.985501],[85.185502,27.985322],[85.185568,27.985156],[85.185515,27.985013],[85.185304,27.984828],[85.184955,27.984842],[85.184692,27.984695],[85.184453,27.984503]]},"properties":{"osm_id":912408678,"highway":"track","name":null,"ref":null}},{"type":"Feature","geometry":{"type":"LineString","coordinates":[[85.182299,27.973309],[85.182197,27.973671],[85.181959,27.973842],[85.181747,27.974164],[85.181512,27.974453],[85.181381,27.974555],[85.181478,27.9748],[85.181475,27.974895],[85.18142,27.974932],[85.181242,27.974953]]},"properties":{"osm_id":912640587,"highway":"track","name":null,"ref":null}},{"type":"Feature","geometry":{"type":"LineString","coordinates":[[85.185357,27.971883],[85.185231,27.971864],[85.185145,27.971783],[85.185137,27.971701],[85.185261,27.971644]]},"properties":{"osm_id":912640592,"highway":"service","name":null,"ref":null}},{"type":"Feature","geometry":{"type":"LineString","coordinates":[[85.22,27.954441],[85.218933,27.954563],[85.219579,27.954121],[85.218437,27.954225]]},"properties":{"osm_id":926720239,"highway":"unclassified","name":null,"ref":null}},{"type":"Feature","geometry":{"type":"LineString","coordinates":[[85.219325,27.955329],[85.219787,27.955017],[85.22,27.954934]]},"properties":{"osm_id":926720240,"highway":"unclassified","name":null,"ref":null}},{"type":"Feature","geometry":{"type":"LineString","coordinates":[[85.218839,27.955597],[85.218882,27.955493],[85.219274,27.955347]]},"properties":{"osm_id":926720241,"highway":"unclassified","name":null,"ref":null}},{"type":"Feature","geometry":{"type":"LineString","coordinates":[[85.219274,27.955347],[85.219325,27.955329]]},"properties":{"osm_id":926720242,"highway":"unclassified","name":null,"ref":null}},{"type":"Feature","geometry":{"type":"LineString","coordinates":[[85.175021,27.987741],[85.175091,27.987048]]},"properties":{"osm_id":928043567,"highway":"living_street","name":null,"ref":null}},{"type":"Feature","geometry":{"type":"LineString","coordinates":[[85.185662,27.97448],[85.185511,27.974807],[85.185424,27.974888],[85.185334,27.974916],[85.185184,27.974926],[85.184679,27.974875],[85.184265,27.974786],[85.184119,27.9748],[85.184024,27.974892]]},"properties":{"osm_id":1128013962,"highway":"primary","name":"Pasang Lhamu Highway","ref":"NH42"}},{"type":"Feature","geometry":{"type":"LineString","coordinates":[[85.185215,27.972974],[85.185684,27.972898]]},"properties":{"osm_id":1434607565,"highway":"residential","name":null,"ref":null}},{"type":"Feature","geometry":{"type":"LineString","coordinates":[[85.185183,27.97248],[85.185109,27.97254],[85.185098,27.972604],[85.185306,27.973251],[85.185454,27.973538],[85.185589,27.973619],[85.185917,27.973602]]},"properties":{"osm_id":1434607566,"highway":"residential","name":null,"ref":null}}]}
